{
  "type": "FeatureCollection",
  "features": [
    {
      "type": "Feature",
      "properties": {
        "route_id": "ed-king",
        "display": "Edmonds to Kingston",
        "source": "wsdot_ferry_routes.geojson",
        "objectid": 11,
        "owner": "State"
      },
      "geometry": {
        "type": "LineString",
        "coordinates": [
          [
            -122.49455026073649,
            47.7949915324451
          ],
          [
            -122.49433942548315,
            47.79488785517846
          ],
          [
            -122.49412730830373,
            47.79478581144123
          ],
          [
            -122.49391390919423,
            47.79468540123153
          ],
          [
            -122.49369922814907,
            47.79458662454669
          ],
          [
            -122.49348326516075,
            47.794489481383266
          ],
          [
            -122.49326602022234,
            47.79439397173812
          ],
          [
            -122.49304749332836,
            47.7943000956089
          ],
          [
            -122.49282768447318,
            47.79420785299313
          ],
          [
            -122.49260659364789,
            47.79411724388712
          ],
          [
            -122.49238422084987,
            47.79402826828978
          ],
          [
            -122.49216056606993,
            47.79394092619739
          ],
          [
            -122.49193562930137,
            47.79385521760735
          ],
          [
            -122.49170941053795,
            47.793771142517336
          ],
          [
            -122.4914819097745,
            47.79368870092537
          ],
          [
            -122.49125312700315,
            47.793607892828604
          ],
          [
            -122.49102306221673,
            47.793528718224536
          ],
          [
            -122.49069303017355,
            47.793417571242486
          ],
          [
            -122.49040840125744,
            47.79332389797234
          ],
          [
            -122.49014585972671,
            47.79324003069556
          ],
          [
            -122.48989943560163,
            47.79316408888164
          ],
          [
            -122.48966100723175,
            47.793093636972806
          ],
          [
            -122.4894317964092,
            47.793029108953164
          ],
          [
            -122.48920983677601,
            47.792969952083894
          ],
          [
            -122.48899390900978,
            47.79291584277856
          ],
          [
            -122.48883367436662,
            47.79287800113911
          ],
          [
            -122.48866985800339,
            47.792841264024716
          ],
          [
            -122.48850228334834,
            47.792805591787264
          ],
          [
            -122.48833073199836,
            47.792770937893906
          ],
          [
            -122.48797480728012,
            47.79270450419234
          ],
          [
            -122.4875992618248,
            47.79264143455509
          ],
          [
            -122.48720578827158,
            47.7925818775494
          ],
          [
            -122.4867827204808,
            47.792523943566444
          ],
          [
            -122.48632114046244,
            47.792466365738385
          ],
          [
            -122.48578805411775,
            47.79240501777188
          ],
          [
            -122.48544053299338,
            47.79236720780473
          ],
          [
            -122.48511499820724,
            47.792333679702715
          ],
          [
            -122.4848053813566,
            47.792303809716444
          ],
          [
            -122.48450868744223,
            47.79227731157852
          ],
          [
            -122.48422147142158,
            47.792253890852365
          ],
          [
            -122.4839434127835,
            47.79223353548264
          ],
          [
            -122.48367328829413,
            47.79221615619165
          ],
          [
            -122.48341025745283,
            47.79220169930205
          ],
          [
            -122.48315129209723,
            47.79219003320529
          ],
          [
            -122.48289827032336,
            47.79218127836447
          ],
          [
            -122.48265071410418,
            47.792175418341465
          ],
          [
            -122.48240825556454,
            47.792172444562
          ],
          [
            -122.48217049610504,
            47.792172353471585
          ],
          [
            -122.48193724731533,
            47.792175146376024
          ],
          [
            -122.4817082727964,
            47.79218082615442
          ],
          [
            -122.48148337948258,
            47.79218939765552
          ],
          [
            -122.48127955759054,
            47.7921998182893
          ],
          [
            -122.48107255477494,
            47.79221290619353
          ],
          [
            -122.48086219448763,
            47.792228672481414
          ],
          [
            -122.48064826143735,
            47.792247133248644
          ],
          [
            -122.48043058364632,
            47.792268302196334
          ],
          [
            -122.48020880101153,
            47.7922922132385
          ],
          [
            -122.47998258185615,
            47.792318902023396
          ],
          [
            -122.47975149700736,
            47.79234841909893
          ],
          [
            -122.47951719039436,
            47.792380524887065
          ],
          [
            -122.47927698194312,
            47.79241555782531
          ],
          [
            -122.47903012443956,
            47.79245362656056
          ],
          [
            -122.47877553595491,
            47.792494897716644
          ],
          [
            -122.47851291479816,
            47.79253940861693
          ],
          [
            -122.47823925082048,
            47.792587658528525
          ],
          [
            -122.47764569848374,
            47.792697709436844
          ],
          [
            -122.47733918053835,
            47.79275876850557
          ],
          [
            -122.47702082159945,
            47.79282738547876
          ],
          [
            -122.47668731695121,
            47.79290426631146
          ],
          [
            -122.47633218369228,
            47.79299090242076
          ],
          [
            -122.47602536167476,
            47.793068977030686
          ],
          [
            -122.47568519725202,
            47.793158193354934
          ],
          [
            -122.4745195155136,
            47.79347253148127
          ],
          [
            -122.47406654391978,
            47.793592489144494
          ],
          [
            -122.47306664712016,
            47.79385667976124
          ],
          [
            -122.47204384493627,
            47.79413428396566
          ],
          [
            -122.47099457653673,
            47.794426266989554
          ],
          [
            -122.46991375385376,
            47.79473404386218
          ],
          [
            -122.46879979413647,
            47.79505802232602
          ],
          [
            -122.46763890301516,
            47.7954021737546
          ],
          [
            -122.46641905106519,
            47.79577005630206
          ],
          [
            -122.46511640045915,
            47.796168855139584
          ],
          [
            -122.46447744704668,
            47.796367152912886
          ],
          [
            -122.4638287805141,
            47.79657126048792
          ],
          [
            -122.46316938546512,
            47.796781497245924
          ],
          [
            -122.46249798701716,
            47.79699826956672
          ],
          [
            -122.46181365178958,
            47.79722187576524
          ],
          [
            -122.46111404135897,
            47.79745307698215
          ],
          [
            -122.46039702475065,
            47.797692577103774
          ],
          [
            -122.45965964571339,
            47.797941363347235
          ],
          [
            -122.45892753861825,
            47.79819065150858
          ],
          [
            -122.45816865168251,
            47.79845122611246
          ],
          [
            -122.45737726356784,
            47.79872505024869
          ],
          [
            -122.45654342165807,
            47.79901556679227
          ],
          [
            -122.45475139742672,
            47.799645332156146
          ],
          [
            -122.45229618064323,
            47.80051497147683
          ],
          [
            -122.45161261229161,
            47.80075962195505
          ],
          [
            -122.45091780183037,
            47.80101266224066
          ],
          [
            -122.45021027618904,
            47.801274628496515
          ],
          [
            -122.44948811454304,
            47.80154623168865
          ],
          [
            -122.44875009025812,
            47.80182792461
          ],
          [
            -122.44799226293367,
            47.80212120305559
          ],
          [
            -122.44721108476162,
            47.80242743892288
          ],
          [
            -122.4464011852359,
            47.80274873684095
          ],
          [
            -122.44572169432735,
            47.80302097457359
          ],
          [
            -122.4450132380924,
            47.80330711543306
          ],
          [
            -122.44426853579655,
            47.80361009734321
          ],
          [
            -122.44347333547964,
            47.80393571739623
          ],
          [
            -122.44199287295389,
            47.8045461997666
          ],
          [
            -122.43836308727646,
            47.80604997560683
          ],
          [
            -122.43735903608159,
            47.80646339744777
          ],
          [
            -122.43645274722041,
            47.80683418041449
          ],
          [
            -122.43547399515943,
            47.80723128612237
          ],
          [
            -122.4345533385206,
            47.80760096533838
          ],
          [
            -122.4336748288359,
            47.807949619687115
          ],
          [
            -122.43283005502555,
            47.8082805826792
          ],
          [
            -122.43190406522666,
            47.80863794416395
          ],
          [
            -122.4310065498392,
            47.8089783505818
          ],
          [
            -122.43013241578188,
            47.80930373272389
          ],
          [
            -122.42927816978877,
            47.80961538956131
          ],
          [
            -122.428439942019,
            47.80991472235944
          ],
          [
            -122.42761639104218,
            47.81020219916954
          ],
          [
            -122.42680553849262,
            47.81047851026502
          ],
          [
            -122.42600584129134,
            47.81074418106484
          ],
          [
            -122.4232850533285,
            47.811638864940306
          ],
          [
            -122.42189656965536,
            47.81209059354774
          ],
          [
            -122.42119927689019,
            47.81231413629979
          ],
          [
            -122.42054436600142,
            47.81252137242984
          ],
          [
            -122.41992015168721,
            47.81271599788144
          ],
          [
            -122.41932054867488,
            47.81289990659053
          ],
          [
            -122.41869415312702,
            47.81308846558683
          ],
          [
            -122.4180869449138,
            47.81326740899828
          ],
          [
            -122.41749571480268,
            47.81343768205278
          ],
          [
            -122.41691824308816,
            47.81359992323728
          ],
          [
            -122.41635207690967,
            47.813754815384556
          ],
          [
            -122.41579634628538,
            47.81390258996492
          ],
          [
            -122.41524978585039,
            47.81404358326189
          ],
          [
            -122.41471140654684,
            47.81417805016995
          ],
          [
            -122.41380750907193,
            47.81439935580545
          ],
          [
            -122.41310905502107,
            47.814568541004064
          ],
          [
            -122.41247593465225,
            47.81471954015085
          ],
          [
            -122.4118925190935,
            47.81485599836793
          ],
          [
            -122.41132658679057,
            47.81498532021603
          ],
          [
            -122.41078774279578,
            47.81510516563181
          ],
          [
            -122.41026983747975,
            47.81521690116155
          ],
          [
            -122.40976927421119,
            47.81532130061902
          ],
          [
            -122.40926685135342,
            47.815422176850554
          ],
          [
            -122.40877761219512,
            47.815516309294416
          ],
          [
            -122.40829969539402,
            47.81560405571267
          ],
          [
            -122.40783175201099,
            47.81568566325066
          ],
          [
            -122.40737230095507,
            47.81576138563704
          ],
          [
            -122.4069207451606,
            47.81583131654919
          ],
          [
            -122.40647627298208,
            47.8158955815358
          ],
          [
            -122.40603823715053,
            47.81595427399552
          ],
          [
            -122.40540449839595,
            47.81603498457859
          ],
          [
            -122.40492714464123,
            47.81609339558038
          ],
          [
            -122.40449487548464,
            47.81614312308068
          ],
          [
            -122.40409792632184,
            47.81618515574482
          ],
          [
            -122.40371271226084,
            47.816221792273296
          ],
          [
            -122.40334693171204,
            47.81625208105796
          ],
          [
            -122.40299629161282,
            47.81627637587192
          ],
          [
            -122.4026583141073,
            47.81629484530707
          ],
          [
            -122.40225269524802,
            47.816310549515784
          ],
          [
            -122.40183402267859,
            47.8163201985887
          ],
          [
            -122.401400715804,
            47.816323830340544
          ],
          [
            -122.40095039481503,
            47.81632146562023
          ],
          [
            -122.40048288894282,
            47.816313157356376
          ],
          [
            -122.39999071976841,
            47.816298822810495
          ],
          [
            -122.39946750509824,
            47.81627828807133
          ],
          [
            -122.39889835386565,
            47.81625097350934
          ],
          [
            -122.39853317587513,
            47.81623057882595
          ],
          [
            -122.39816637870649,
            47.816207136735926
          ],
          [
            -122.39779816093537,
            47.81618065992231
          ],
          [
            -122.39742873112324,
            47.81615116337396
          ],
          [
            -122.39705829169984,
            47.81611866311753
          ],
          [
            -122.396687076764,
            47.816083179555854
          ],
          [
            -122.396315314205,
            47.816044734464334
          ],
          [
            -122.39594324183949,
            47.81600335242824
          ],
          [
            -122.39551487395505,
            47.815952970697005
          ],
          [
            -122.39511254605735,
            47.81590343990235
          ],
          [
            -122.39472985831964,
            47.81585397092959
          ],
          [
            -122.39436347908786,
            47.81580413064251
          ],
          [
            -122.39400962567156,
            47.81575339129087
          ],
          [
            -122.39366782019755,
            47.8157016703386
          ],
          [
            -122.3933366528309,
            47.81564875416717
          ],
          [
            -122.39301514108917,
            47.815594485370426
          ],
          [
            -122.39269990896328,
            47.81553825711297
          ],
          [
            -122.39239298978696,
            47.815480393886325
          ],
          [
            -122.3920938195552,
            47.815420789245096
          ],
          [
            -122.3918019617285,
            47.81535935606738
          ],
          [
            -122.3915169469614,
            47.815295994047204
          ],
          [
            -122.39123854780058,
            47.8152306510503
          ],
          [
            -122.39096648324822,
            47.81516326106744
          ],
          [
            -122.39070052335596,
            47.81509376707145
          ],
          [
            -122.39047218569901,
            47.81502991837115
          ],
          [
            -122.39023677983029,
            47.814959000715405
          ],
          [
            -122.38999211674049,
            47.81488035959728
          ],
          [
            -122.38973413740638,
            47.814792692874995
          ],
          [
            -122.38949086155526,
            47.81470629558957
          ],
          [
            -122.38922280421222,
            47.81460783149091
          ],
          [
            -122.38823218725366,
            47.81423209921153
          ],
          [
            -122.38781854300956,
            47.814079225959475
          ],
          [
            -122.38759365344785,
            47.813999335123526
          ],
          [
            -122.38738204356906,
            47.81392692072227
          ],
          [
            -122.38717961395756,
            47.81386058177276
          ],
          [
            -122.3869842676557,
            47.81379963493141
          ],
          [
            -122.38661074971962,
            47.81368776037617
          ],
          [
            -122.3862354100485,
            47.81357849325619
          ],
          [
            -122.3858582486214,
            47.813471833565394
          ],
          [
            -122.38547926541864,
            47.8133677812982
          ]
        ]
      }
    }
  ]
}