{
  "type": "FeatureCollection",
  "features": [
    {
      "type": "Feature",
      "properties": {
        "route_id": "f-s",
        "display": "Fauntleroy to Southworth",
        "source": "wsdot_ferry_routes.geojson",
        "objectid": 8,
        "owner": "State"
      },
      "geometry": {
        "type": "LineString",
        "coordinates": [
          [
            -122.39660296444437,
            47.523201452268
          ],
          [
            -122.3971199586995,
            47.52329296599744
          ],
          [
            -122.39763772358246,
            47.52338132429975
          ],
          [
            -122.39815625905439,
            47.52346652716831
          ],
          [
            -122.39867556507484,
            47.52354857459643
          ],
          [
            -122.3991956416062,
            47.52362746657825
          ],
          [
            -122.39971648861096,
            47.52370320310804
          ],
          [
            -122.40023810604924,
            47.52377578417997
          ],
          [
            -122.4007604938798,
            47.52384520978831
          ],
          [
            -122.40120440230251,
            47.523900808040196
          ],
          [
            -122.40165820291422,
            47.523953677365164
          ],
          [
            -122.40212281794113,
            47.52400392546736
          ],
          [
            -122.40259945127657,
            47.52405168274481
          ],
          [
            -122.40308888687449,
            47.52409703481797
          ],
          [
            -122.4035935810899,
            47.52414021605453
          ],
          [
            -122.40411576314237,
            47.524181418069645
          ],
          [
            -122.40465878304774,
            47.52422090576378
          ],
          [
            -122.40514246695521,
            47.524253521079764
          ],
          [
            -122.40564871272025,
            47.5242853979544
          ],
          [
            -122.40618291216396,
            47.52431687877127
          ],
          [
            -122.4067558436378,
            47.52434860006684
          ],
          [
            -122.40780178659531,
            47.5244025368024
          ],
          [
            -122.41012330926172,
            47.52451628377884
          ],
          [
            -122.4111179423957,
            47.524568279983846
          ],
          [
            -122.41219368546413,
            47.524625334281104
          ],
          [
            -122.41326737232833,
            47.52467900863208
          ],
          [
            -122.41433895366006,
            47.52472930057124
          ],
          [
            -122.41540838144272,
            47.52477620784542
          ],
          [
            -122.41647560692626,
            47.52481972832279
          ],
          [
            -122.41754058526085,
            47.524859860180925
          ],
          [
            -122.41860327085547,
            47.52489660170221
          ],
          [
            -122.41966361932298,
            47.52492995135233
          ],
          [
            -122.42072157599566,
            47.52495990746322
          ],
          [
            -122.42177710906961,
            47.52498646918588
          ],
          [
            -122.42283017640612,
            47.525009635460236
          ],
          [
            -122.42388073696142,
            47.52502940538372
          ],
          [
            -122.42492874912506,
            47.525045778178914
          ],
          [
            -122.42597417453952,
            47.52505875325215
          ],
          [
            -122.42701697424121,
            47.52506833012015
          ],
          [
            -122.42805711028755,
            47.525074508434784
          ],
          [
            -122.42975839316588,
            47.5250786080019
          ],
          [
            -122.4313695489964,
            47.52507594057441
          ],
          [
            -122.43214825532439,
            47.52507205950043
          ],
          [
            -122.43291103791128,
            47.525066469532014
          ],
          [
            -122.4336593772557,
            47.52505915975432
          ],
          [
            -122.4343944434255,
            47.52505011865445
          ],
          [
            -122.43511932814062,
            47.525039300084316
          ],
          [
            -122.43583279511229,
            47.525026714218825
          ],
          [
            -122.43653563765704,
            47.52501234703082
          ],
          [
            -122.43722851753924,
            47.52499618495317
          ],
          [
            -122.43791214124701,
            47.52497821105178
          ],
          [
            -122.43858692912907,
            47.524958413809706
          ],
          [
            -122.43925336365379,
            47.52493677905343
          ],
          [
            -122.43991186113962,
            47.524913293245916
          ],
          [
            -122.44063529928833,
            47.524885224049015
          ],
          [
            -122.44135851431875,
            47.52485505970621
          ],
          [
            -122.44208150618564,
            47.52482280021936
          ],
          [
            -122.44280427484968,
            47.52478844559027
          ],
          [
            -122.44352682028043,
            47.52475199582038
          ],
          [
            -122.44424914243665,
            47.524713450911754
          ],
          [
            -122.4449712412838,
            47.52467281086625
          ],
          [
            -122.44569311677746,
            47.524630075686346
          ],
          [
            -122.44641476888704,
            47.52458524537392
          ],
          [
            -122.44713619757904,
            47.524538319931
          ],
          [
            -122.44785740280786,
            47.524489299360546
          ],
          [
            -122.44857838454014,
            47.52443818366483
          ],
          [
            -122.44929914273486,
            47.52438497284678
          ],
          [
            -122.45001967736503,
            47.52432966690841
          ],
          [
            -122.45073998838438,
            47.524272265853185
          ],
          [
            -122.45146007575771,
            47.52421276968397
          ],
          [
            -122.45217993944922,
            47.52415117840368
          ],
          [
            -122.45289957942066,
            47.52408749201564
          ],
          [
            -122.45361899563821,
            47.52402171052278
          ],
          [
            -122.45433818804919,
            47.523953833929944
          ],
          [
            -122.45505715663258,
            47.523883862239224
          ],
          [
            -122.45577590135282,
            47.52381179545399
          ],
          [
            -122.45649442216573,
            47.523737633578655
          ],
          [
            -122.45721271903858,
            47.52366137661662
          ],
          [
            -122.45793079192865,
            47.523583024572396
          ],
          [
            -122.45864864080362,
            47.52350257744954
          ],
          [
            -122.45936626562549,
            47.523420035252286
          ],
          [
            -122.46008366635492,
            47.523335397985164
          ],
          [
            -122.46080084295784,
            47.5232486656522
          ],
          [
            -122.46151779539424,
            47.52315983825822
          ],
          [
            -122.46223452362972,
            47.52306891580753
          ],
          [
            -122.4629510276264,
            47.52297589830489
          ],
          [
            -122.46387430636479,
            47.52290479814714
          ],
          [
            -122.46479665897387,
            47.52282934347918
          ],
          [
            -122.46571808535217,
            47.52274953430927
          ],
          [
            -122.46663858539972,
            47.52266537064616
          ],
          [
            -122.46755062488535,
            47.52257809072127
          ],
          [
            -122.46842276500047,
            47.52249118721607
          ],
          [
            -122.46926239097274,
            47.52240392336094
          ],
          [
            -122.470074117597,
            47.52231581808414
          ],
          [
            -122.47086307147141,
            47.522226304932765
          ],
          [
            -122.47163059499887,
            47.52213522108275
          ],
          [
            -122.47237901458904,
            47.52204229018501
          ],
          [
            -122.47311006545935,
            47.52194729641208
          ],
          [
            -122.47375864190006,
            47.521860184121465
          ],
          [
            -122.47437731106184,
            47.52177527121687
          ],
          [
            -122.47497195824961,
            47.52169174940036
          ],
          [
            -122.47554616923189,
            47.52160911412122
          ],
          [
            -122.47610394012113,
            47.52152678426294
          ],
          [
            -122.47664623565242,
            47.52144461107742
          ],
          [
            -122.47717481934887,
            47.52136232718415
          ],
          [
            -122.4776909946936,
            47.521279729455834
          ],
          [
            -122.4781987432101,
            47.52119616106005
          ],
          [
            -122.47869600707585,
            47.52111194046517
          ],
          [
            -122.47918359608202,
            47.52102693044993
          ],
          [
            -122.47966216020315,
            47.52094101760623
          ],
          [
            -122.4801323970569,
            47.520854075771254
          ],
          [
            -122.48059468114293,
            47.52076603475206
          ],
          [
            -122.48104945828388,
            47.52067680960685
          ],
          [
            -122.48149710350383,
            47.52058632671459
          ],
          [
            -122.48260345852756,
            47.52035977787243
          ],
          [
            -122.48323795269577,
            47.5202273709909
          ],
          [
            -122.48383174136293,
            47.5200992242534
          ],
          [
            -122.48436568903645,
            47.51997881617422
          ],
          [
            -122.48489183984034,
            47.51985383190719
          ],
          [
            -122.485141671745,
            47.51979183461202
          ],
          [
            -122.48538399326091,
            47.51972984266668
          ],
          [
            -122.48561977750126,
            47.51966760441917
          ],
          [
            -122.48584937407556,
            47.519605024757404
          ],
          [
            -122.48607328406403,
            47.519541967021
          ],
          [
            -122.48629189723853,
            47.519478321332116
          ],
          [
            -122.4867868507955,
            47.51932911816884
          ],
          [
            -122.48725539189893,
            47.51918238700879
          ],
          [
            -122.48770190476966,
            47.51903675318745
          ],
          [
            -122.48812893221285,
            47.518891384387125
          ],
          [
            -122.4885392957872,
            47.5187453012134
          ],
          [
            -122.48893354236701,
            47.518598288885755
          ],
          [
            -122.48931282268616,
            47.51844991782653
          ],
          [
            -122.48967795561323,
            47.518299867027096
          ],
          [
            -122.48993455815129,
            47.51819016811998
          ],
          [
            -122.49018886689267,
            47.51807831183064
          ],
          [
            -122.4904406876362,
            47.51796438358358
          ],
          [
            -122.49068983247949,
            47.51784846839494
          ],
          [
            -122.49093611206541,
            47.51773065447795
          ],
          [
            -122.49117935493715,
            47.51761102396871
          ],
          [
            -122.49141938838049,
            47.51748966181818
          ],
          [
            -122.4916560469921,
            47.5173666516626
          ],
          [
            -122.49188097793011,
            47.517246783619576
          ],
          [
            -122.49209875084608,
            47.517128040818115
          ],
          [
            -122.49230980256094,
            47.5170101849589
          ],
          [
            -122.4925144591626,
            47.516893033787525
          ],
          [
            -122.49271307156883,
            47.51677638487815
          ],
          [
            -122.49290579261552,
            47.516660146847784
          ],
          [
            -122.49309281934413,
            47.51654420079692
          ],
          [
            -122.49327430858516,
            47.51642844942949
          ],
          [
            -122.49384583142461,
            47.51606653005203
          ],
          [
            -122.49399351119055,
            47.515969076776344
          ],
          [
            -122.4941220304468,
            47.51588004428777
          ],
          [
            -122.49425358714763,
            47.51578289065697
          ],
          [
            -122.49437057466136,
            47.51568922965747
          ],
          [
            -122.49447504440647,
            47.515597414202446
          ],
          [
            -122.49452290468128,
            47.515551916803446
          ],
          [
            -122.49456798366224,
            47.515506566388424
          ],
          [
            -122.49461529477759,
            47.515455954641844
          ],
          [
            -122.49466147246585,
            47.5154033531975
          ],
          [
            -122.49470660009447,
            47.515348667282815
          ],
          [
            -122.49475078106845,
            47.5152917717435
          ],
          [
            -122.49479408447392,
            47.51523258320205
          ],
          [
            -122.49483670260672,
            47.515170844424276
          ],
          [
            -122.49487880006511,
            47.515106317709176
          ],
          [
            -122.49492060922506,
            47.51503864738646
          ],
          [
            -122.4949965294669,
            47.51490656844414
          ],
          [
            -122.49507555540004,
            47.514757201570404
          ],
          [
            -122.49514731511346,
            47.51461310922666
          ],
          [
            -122.49531826217185,
            47.5142597998092
          ],
          [
            -122.49539251614353,
            47.51410572160808
          ],
          [
            -122.49546327452202,
            47.51395084686248
          ],
          [
            -122.49553053730646,
            47.513795175573975
          ],
          [
            -122.495594304497,
            47.51363870774262
          ],
          [
            -122.49565457609418,
            47.51348144336697
          ],
          [
            -122.49571135209834,
            47.51332338244612
          ],
          [
            -122.49576463250926,
            47.51316452498061
          ],
          [
            -122.49581441732727,
            47.513004870969546
          ]
        ]
      }
    }
  ]
}