{
  "type": "FeatureCollection",
  "features": [
    {
      "type": "Feature",
      "properties": {
        "route_id": "f-v-s",
        "display": "Fauntleroy-Vashon-Southworth triangle",
        "source": "merged: f-v + reversed(s-v)",
        "note": "f-v coords + reversed s-v coords (Vashon join point de-duped)"
      },
      "geometry": {
        "type": "LineString",
        "coordinates": [
          [
            -122.39660296444437,
            47.523201452268
          ],
          [
            -122.39768789610935,
            47.523195958824864
          ],
          [
            -122.3987722605591,
            47.52318422828039
          ],
          [
            -122.3992795662131,
            47.5231760906908
          ],
          [
            -122.3997915290019,
            47.52316554797139
          ],
          [
            -122.40030838195662,
            47.52315259533734
          ],
          [
            -122.40083038784627,
            47.52313722621576
          ],
          [
            -122.40135778372826,
            47.52311943391157
          ],
          [
            -122.40189092784856,
            47.523099206618305
          ],
          [
            -122.4024301586858,
            47.52307653151689
          ],
          [
            -122.40297586660024,
            47.52305139221173
          ],
          [
            -122.40352774259267,
            47.5230238072172
          ],
          [
            -122.40408698468849,
            47.522993720871334
          ],
          [
            -122.40465412061882,
            47.522961104823445
          ],
          [
            -122.40522977924701,
            47.52292592294108
          ],
          [
            -122.40581448253418,
            47.522888144235324
          ],
          [
            -122.4064092253295,
            47.522847705313865
          ],
          [
            -122.40701493027123,
            47.522804543527876
          ],
          [
            -122.40763275623391,
            47.522758576364176
          ],
          [
            -122.40873346928387,
            47.52267218933662
          ],
          [
            -122.40988384009577,
            47.522576376201464
          ],
          [
            -122.41109614911775,
            47.52247012120837
          ],
          [
            -122.41239492946131,
            47.52235127745419
          ],
          [
            -122.41351490839092,
            47.522245464682
          ],
          [
            -122.41476422064034,
            47.522124714499704
          ],
          [
            -122.41989872261799,
            47.52161928839403
          ],
          [
            -122.42095257276844,
            47.52151787140252
          ],
          [
            -122.42191651394032,
            47.521426989946065
          ],
          [
            -122.42626949659336,
            47.52102404994343
          ],
          [
            -122.4284175055546,
            47.520821155287685
          ],
          [
            -122.42950322311833,
            47.52071575076204
          ],
          [
            -122.43051963231606,
            47.52061471190364
          ],
          [
            -122.43148519663019,
            47.5205162018048
          ],
          [
            -122.43240946672042,
            47.520419243025785
          ],
          [
            -122.43337449967375,
            47.520314861194976
          ],
          [
            -122.43430601220028,
            47.520210699462304
          ],
          [
            -122.43520902032756,
            47.520106196455124
          ],
          [
            -122.43608697355816,
            47.52000095225353
          ],
          [
            -122.4369436615355,
            47.51989450680287
          ],
          [
            -122.43778041423218,
            47.51978668882953
          ],
          [
            -122.43859916874597,
            47.519677248557215
          ],
          [
            -122.43940143112053,
            47.51956598444823
          ],
          [
            -122.44195039003114,
            47.51920971578737
          ],
          [
            -122.44307969566047,
            47.51904878382844
          ],
          [
            -122.44367126336996,
            47.51896212592911
          ],
          [
            -122.44422384436314,
            47.51887917842215
          ],
          [
            -122.44474785700993,
            47.518798376089805
          ],
          [
            -122.44524861564,
            47.518718896726845
          ],
          [
            -122.44577615295087,
            47.518632442627144
          ],
          [
            -122.44628427369905,
            47.51854620105041
          ],
          [
            -122.44677580720348,
            47.51845969134674
          ],
          [
            -122.44725268186417,
            47.51837257345671
          ],
          [
            -122.44771701344357,
            47.518284455587455
          ],
          [
            -122.44816952618507,
            47.5181951947818
          ],
          [
            -122.44861128761595,
            47.518104580304275
          ],
          [
            -122.44904312308212,
            47.51801244264937
          ],
          [
            -122.4499378895382,
            47.517814159672
          ],
          [
            -122.45036511319752,
            47.51771673873563
          ],
          [
            -122.45078087409159,
            47.517620016443885
          ],
          [
            -122.45118664105848,
            47.5175236486686
          ],
          [
            -122.45158295241306,
            47.51742750504235
          ],
          [
            -122.45197057292832,
            47.517331399958216
          ],
          [
            -122.45235009969682,
            47.517235185276995
          ],
          [
            -122.45272314082153,
            47.51713844382105
          ],
          [
            -122.45308901519014,
            47.517041342505856
          ],
          [
            -122.45344811804571,
            47.51694377639803
          ],
          [
            -122.45380077563162,
            47.51684565681297
          ],
          [
            -122.45414733552528,
            47.51674688651839
          ],
          [
            -122.45448799904445,
            47.516647407597745
          ],
          [
            -122.45482299856526,
            47.516547152172116
          ],
          [
            -122.4551525326078,
            47.51644606080489
          ],
          [
            -122.45653990081742,
            47.51602451576016
          ],
          [
            -122.45690479671566,
            47.51590875178761
          ],
          [
            -122.4572279227163,
            47.51580107097333
          ],
          [
            -122.45740107832424,
            47.515740731457484
          ],
          [
            -122.45756639643136,
            47.51568105235618
          ],
          [
            -122.45772490412128,
            47.5156216625401
          ],
          [
            -122.45787728098874,
            47.51556230682397
          ],
          [
            -122.45802426684641,
            47.515502692733236
          ],
          [
            -122.45816609515542,
            47.51544272104641
          ],
          [
            -122.45830312343014,
            47.51538224046143
          ],
          [
            -122.45843562266002,
            47.51532113119881
          ],
          [
            -122.45868888089632,
            47.515199324785485
          ],
          [
            -122.4589292725752,
            47.51507885630469
          ],
          [
            -122.45915779901584,
            47.514959223310605
          ],
          [
            -122.45937506035384,
            47.51484011056059
          ],
          [
            -122.45958171417925,
            47.514721149908965
          ],
          [
            -122.45977788759164,
            47.51460226001026
          ],
          [
            -122.4599638434148,
            47.514483281373344
          ],
          [
            -122.4601397629897,
            47.51436409767654
          ],
          [
            -122.46023244445632,
            47.51429799901893
          ],
          [
            -122.4603248891391,
            47.51422924729223
          ],
          [
            -122.46041726461769,
            47.51415771802901
          ],
          [
            -122.4605097824941,
            47.51408324750561
          ],
          [
            -122.4606025860991,
            47.51400572483488
          ],
          [
            -122.46069607910766,
            47.51392481720205
          ],
          [
            -122.46079061846515,
            47.513840216273806
          ],
          [
            -122.46088671621852,
            47.51375146421441
          ],
          [
            -122.46106893502626,
            47.51357613480168
          ],
          [
            -122.46126594030358,
            47.513377733429095
          ],
          [
            -122.46145812884502,
            47.51317774619938
          ],
          [
            -122.46187205115804,
            47.5127400545645
          ],
          [
            -122.46210616467779,
            47.51248998591296
          ],
          [
            -122.46233921516807,
            47.51223203920569
          ],
          [
            -122.46257146216361,
            47.51196592754428
          ],
          [
            -122.46280324116798,
            47.51169126678438
          ],
          [
            -122.46293439632313,
            47.51153163987333
          ],
          [
            -122.46306349540572,
            47.51137123465402
          ],
          [
            -122.46319053841317,
            47.51121005112965
          ],
          [
            -122.4633155253439,
            47.51104808930217
          ],
          [
            -122.46343845619913,
            47.510885349170316
          ],
          [
            -122.46355933098022,
            47.510721830732024
          ],
          [
            -122.4636781496847,
            47.510557533990635
          ],
          [
            -122.46379491231204,
            47.51039245894691
          ],
          [
            -122.46387722365616,
            47.511105067486625
          ],
          [
            -122.46393581283866,
            47.511322372589945
          ],
          [
            -122.46398890285191,
            47.51154017849015
          ],
          [
            -122.46403649369597,
            47.51175848518757
          ],
          [
            -122.46405375178533,
            47.51185849988061
          ],
          [
            -122.46406675976888,
            47.51197033456517
          ],
          [
            -122.46407536243825,
            47.512082872946365
          ],
          [
            -122.46409257089549,
            47.51238018622865
          ],
          [
            -122.46410033664496,
            47.512467949403224
          ],
          [
            -122.46410987824622,
            47.51254635494584
          ],
          [
            -122.4641246411052,
            47.51263478420584
          ],
          [
            -122.46414313566156,
            47.51271665830751
          ],
          [
            -122.4641657230382,
            47.512793561280986
          ],
          [
            -122.46419264450768,
            47.51286629097119
          ],
          [
            -122.46427430193461,
            47.51306680640423
          ],
          [
            -122.46432492750033,
            47.513181616963394
          ],
          [
            -122.46435159185104,
            47.513236614412975
          ],
          [
            -122.46437828399954,
            47.51328763591905
          ],
          [
            -122.46440540466487,
            47.51333544545058
          ],
          [
            -122.46443317616912,
            47.513380431174326
          ],
          [
            -122.46446368227828,
            47.513425580157836
          ],
          [
            -122.46449529180296,
            47.513468093283734
          ],
          [
            -122.46452813756088,
            47.51350814873479
          ],
          [
            -122.46456231653774,
            47.51354586416056
          ],
          [
            -122.46459794566495,
            47.51358136388863
          ],
          [
            -122.46463506798759,
            47.513614686217174
          ],
          [
            -122.46467374807334,
            47.51364588898012
          ],
          [
            -122.46471403860318,
            47.51367501452126
          ],
          [
            -122.46479471037296,
            47.513726734535936
          ],
          [
            -122.46488103654379,
            47.51377548572957
          ],
          [
            -122.46497301711038,
            47.51382126809919
          ],
          [
            -122.46507065206728,
            47.513864081642105
          ],
          [
            -122.46518518211478,
            47.51393342796105
          ],
          [
            -122.46530124374854,
            47.51400112143922
          ],
          [
            -122.46541883696526,
            47.51406716207466
          ],
          [
            -122.46553796176192,
            47.514131549865674
          ],
          [
            -122.46565861813572,
            47.514194284810785
          ],
          [
            -122.46578080608411,
            47.51425536690864
          ],
          [
            -122.4659045256034,
            47.51431479615742
          ],
          [
            -122.46602977669141,
            47.51437257255604
          ],
          [
            -122.46618838223041,
            47.514441284073555
          ],
          [
            -122.46635781790808,
            47.5145089358129
          ],
          [
            -122.46653968116756,
            47.51457617137313
          ],
          [
            -122.46673710234995,
            47.51464415086376
          ],
          [
            -122.46692880783448,
            47.51470631696465
          ],
          [
            -122.46714501528143,
            47.514773132858885
          ],
          [
            -122.4679190078664,
            47.51500209713196
          ],
          [
            -122.46829951779806,
            47.515114157811205
          ],
          [
            -122.4686779607351,
            47.515221160829405
          ],
          [
            -122.46905422689929,
            47.51532307516066
          ],
          [
            -122.46942821824322,
            47.5154198742631
          ],
          [
            -122.46979983137453,
            47.515511531573054
          ],
          [
            -122.4701689927866,
            47.51559802915983
          ],
          [
            -122.47053562262893,
            47.515679348322976
          ],
          [
            -122.47089964874037,
            47.515755473067024
          ],
          [
            -122.47125708841213,
            47.515825019804815
          ],
          [
            -122.4716302234077,
            47.5158919201125
          ],
          [
            -122.47202153892388,
            47.51595662260543
          ],
          [
            -122.47243528057263,
            47.516019830994246
          ],
          [
            -122.47286554933953,
            47.51608083634745
          ],
          [
            -122.47333381969011,
            47.51614285729854
          ],
          [
            -122.4738520452072,
            47.516207575427785
          ],
          [
            -122.47450725437321,
            47.51628586718897
          ],
          [
            -122.47522605344025,
            47.51636772975036
          ],
          [
            -122.47590426628311,
            47.516438999980295
          ],
          [
            -122.476551875269,
            47.516500723842775
          ],
          [
            -122.47717418124256,
            47.51655340061565
          ],
          [
            -122.47777721412642,
            47.51659750820692
          ],
          [
            -122.47807166380903,
            47.5166163485184
          ],
          [
            -122.47836180224084,
            47.516633072753706
          ],
          [
            -122.47864793455896,
            47.516647698041005
          ],
          [
            -122.47893023429909,
            47.516660232778385
          ],
          [
            -122.47920890398157,
            47.516670685939744
          ],
          [
            -122.47948411639867,
            47.516679063984846
          ],
          [
            -122.47977463625526,
            47.51668575951873
          ],
          [
            -122.48006900051344,
            47.51669036107166
          ],
          [
            -122.4803673815777,
            47.51669287136117
          ],
          [
            -122.48066998122333,
            47.5166932921038
          ],
          [
            -122.48097697308162,
            47.51669162402306
          ],
          [
            -122.48128865961016,
            47.516687865946125
          ],
          [
            -122.48160532329268,
            47.51668201450879
          ],
          [
            -122.48192730672578,
            47.51667406341447
          ],
          [
            -122.48225399439416,
            47.516664036778074
          ],
          [
            -122.4825868093192,
            47.51665189966535
          ],
          [
            -122.48292626917807,
            47.516637633288944
          ],
          [
            -122.48327303913727,
            47.51662120976431
          ],
          [
            -122.48399118078109,
            47.51658176756479
          ],
          [
            -122.48475077704107,
            47.516533051951576
          ],
          [
            -122.48540709697772,
            47.516487544642146
          ],
          [
            -122.48588798287044,
            47.516451964997785
          ],
          [
            -122.48632231101857,
            47.51641677777211
          ],
          [
            -122.48671880313424,
            47.51638112110307
          ],
          [
            -122.48710271269965,
            47.516342509544465
          ],
          [
            -122.48746518061675,
            47.51630159587296
          ],
          [
            -122.48781063395211,
            47.51625787859412
          ],
          [
            -122.48814159774885,
            47.51621103490178
          ],
          [
            -122.48867282676878,
            47.516130605991144
          ],
          [
            -122.48906820514482,
            47.51606750847263
          ],
          [
            -122.48942381419955,
            47.51600640646295
          ],
          [
            -122.48974692684473,
            47.51594585230371
          ],
          [
            -122.4900566673451,
            47.515881977179944
          ],
          [
            -122.49034628003344,
            47.51581585562418
          ],
          [
            -122.49061906859441,
            47.515746730930196
          ],
          [
            -122.49074974914159,
            47.515710891545034
          ],
          [
            -122.49087688385558,
            47.515674129595766
          ],
          [
            -122.49106823424997,
            47.51561533069904
          ],
          [
            -122.49126051467812,
            47.51555229396704
          ],
          [
            -122.4914537779491,
            47.51548500211169
          ],
          [
            -122.4916480876035,
            47.51541343302972
          ],
          [
            -122.49184349532655,
            47.51533756823889
          ],
          [
            -122.49204010284289,
            47.515257368791566
          ],
          [
            -122.49223800275115,
            47.515172796965814
          ],
          [
            -122.4924373103899,
            47.51508380351324
          ],
          [
            -122.49263774744509,
            47.514990524228715
          ],
          [
            -122.49283987562428,
            47.51489270911813
          ],
          [
            -122.49304387622814,
            47.514790270568255
          ],
          [
            -122.4932499881802,
            47.51468308869826
          ],
          [
            -122.49345836269177,
            47.51457108823181
          ],
          [
            -122.49366949139906,
            47.51445400817917
          ],
          [
            -122.49388380878102,
            47.514331608015375
          ],
          [
            -122.49410195351324,
            47.51420352326399
          ],
          [
            -122.49433001723578,
            47.51406502321027
          ],
          [
            -122.49455407933243,
            47.51392328557949
          ],
          [
            -122.49477413979506,
            47.513778310376736
          ],
          [
            -122.49499019861493,
            47.51363009760782
          ],
          [
            -122.49520225578522,
            47.51347864727747
          ],
          [
            -122.4954103112995,
            47.513323959390235
          ],
          [
            -122.49561436514925,
            47.51316603395238
          ],
          [
            -122.49581441732727,
            47.513004870969546
          ]
        ]
      }
    }
  ]
}