{
  "type": "FeatureCollection",
  "features": [
    {
      "type": "Feature",
      "properties": {
        "route_id": "f-v",
        "display": "Fauntleroy to Vashon",
        "source": "wsdot_ferry_routes.geojson",
        "objectid": 17,
        "owner": "State"
      },
      "geometry": {
        "type": "LineString",
        "coordinates": [
          [
            -122.39660296444437,
            47.523201452268
          ],
          [
            -122.39768789610935,
            47.523195958824864
          ],
          [
            -122.3987722605591,
            47.52318422828039
          ],
          [
            -122.3992795662131,
            47.5231760906908
          ],
          [
            -122.3997915290019,
            47.52316554797139
          ],
          [
            -122.40030838195662,
            47.52315259533734
          ],
          [
            -122.40083038784627,
            47.52313722621576
          ],
          [
            -122.40135778372826,
            47.52311943391157
          ],
          [
            -122.40189092784856,
            47.523099206618305
          ],
          [
            -122.4024301586858,
            47.52307653151689
          ],
          [
            -122.40297586660024,
            47.52305139221173
          ],
          [
            -122.40352774259267,
            47.5230238072172
          ],
          [
            -122.40408698468849,
            47.522993720871334
          ],
          [
            -122.40465412061882,
            47.522961104823445
          ],
          [
            -122.40522977924701,
            47.52292592294108
          ],
          [
            -122.40581448253418,
            47.522888144235324
          ],
          [
            -122.4064092253295,
            47.522847705313865
          ],
          [
            -122.40701493027123,
            47.522804543527876
          ],
          [
            -122.40763275623391,
            47.522758576364176
          ],
          [
            -122.40873346928387,
            47.52267218933662
          ],
          [
            -122.40988384009577,
            47.522576376201464
          ],
          [
            -122.41109614911775,
            47.52247012120837
          ],
          [
            -122.41239492946131,
            47.52235127745419
          ],
          [
            -122.41351490839092,
            47.522245464682
          ],
          [
            -122.41476422064034,
            47.522124714499704
          ],
          [
            -122.41989872261799,
            47.52161928839403
          ],
          [
            -122.42095257276844,
            47.52151787140252
          ],
          [
            -122.42191651394032,
            47.521426989946065
          ],
          [
            -122.42626949659336,
            47.52102404994343
          ],
          [
            -122.4284175055546,
            47.520821155287685
          ],
          [
            -122.42950322311833,
            47.52071575076204
          ],
          [
            -122.43051963231606,
            47.52061471190364
          ],
          [
            -122.43148519663019,
            47.5205162018048
          ],
          [
            -122.43240946672042,
            47.520419243025785
          ],
          [
            -122.43337449967375,
            47.520314861194976
          ],
          [
            -122.43430601220028,
            47.520210699462304
          ],
          [
            -122.43520902032756,
            47.520106196455124
          ],
          [
            -122.43608697355816,
            47.52000095225353
          ],
          [
            -122.4369436615355,
            47.51989450680287
          ],
          [
            -122.43778041423218,
            47.51978668882953
          ],
          [
            -122.43859916874597,
            47.519677248557215
          ],
          [
            -122.43940143112053,
            47.51956598444823
          ],
          [
            -122.44195039003114,
            47.51920971578737
          ],
          [
            -122.44307969566047,
            47.51904878382844
          ],
          [
            -122.44367126336996,
            47.51896212592911
          ],
          [
            -122.44422384436314,
            47.51887917842215
          ],
          [
            -122.44474785700993,
            47.518798376089805
          ],
          [
            -122.44524861564,
            47.518718896726845
          ],
          [
            -122.44577615295087,
            47.518632442627144
          ],
          [
            -122.44628427369905,
            47.51854620105041
          ],
          [
            -122.44677580720348,
            47.51845969134674
          ],
          [
            -122.44725268186417,
            47.51837257345671
          ],
          [
            -122.44771701344357,
            47.518284455587455
          ],
          [
            -122.44816952618507,
            47.5181951947818
          ],
          [
            -122.44861128761595,
            47.518104580304275
          ],
          [
            -122.44904312308212,
            47.51801244264937
          ],
          [
            -122.4499378895382,
            47.517814159672
          ],
          [
            -122.45036511319752,
            47.51771673873563
          ],
          [
            -122.45078087409159,
            47.517620016443885
          ],
          [
            -122.45118664105848,
            47.5175236486686
          ],
          [
            -122.45158295241306,
            47.51742750504235
          ],
          [
            -122.45197057292832,
            47.517331399958216
          ],
          [
            -122.45235009969682,
            47.517235185276995
          ],
          [
            -122.45272314082153,
            47.51713844382105
          ],
          [
            -122.45308901519014,
            47.517041342505856
          ],
          [
            -122.45344811804571,
            47.51694377639803
          ],
          [
            -122.45380077563162,
            47.51684565681297
          ],
          [
            -122.45414733552528,
            47.51674688651839
          ],
          [
            -122.45448799904445,
            47.516647407597745
          ],
          [
            -122.45482299856526,
            47.516547152172116
          ],
          [
            -122.4551525326078,
            47.51644606080489
          ],
          [
            -122.45653990081742,
            47.51602451576016
          ],
          [
            -122.45690479671566,
            47.51590875178761
          ],
          [
            -122.4572279227163,
            47.51580107097333
          ],
          [
            -122.45740107832424,
            47.515740731457484
          ],
          [
            -122.45756639643136,
            47.51568105235618
          ],
          [
            -122.45772490412128,
            47.5156216625401
          ],
          [
            -122.45787728098874,
            47.51556230682397
          ],
          [
            -122.45802426684641,
            47.515502692733236
          ],
          [
            -122.45816609515542,
            47.51544272104641
          ],
          [
            -122.45830312343014,
            47.51538224046143
          ],
          [
            -122.45843562266002,
            47.51532113119881
          ],
          [
            -122.45868888089632,
            47.515199324785485
          ],
          [
            -122.4589292725752,
            47.51507885630469
          ],
          [
            -122.45915779901584,
            47.514959223310605
          ],
          [
            -122.45937506035384,
            47.51484011056059
          ],
          [
            -122.45958171417925,
            47.514721149908965
          ],
          [
            -122.45977788759164,
            47.51460226001026
          ],
          [
            -122.4599638434148,
            47.514483281373344
          ],
          [
            -122.4601397629897,
            47.51436409767654
          ],
          [
            -122.46023244445632,
            47.51429799901893
          ],
          [
            -122.4603248891391,
            47.51422924729223
          ],
          [
            -122.46041726461769,
            47.51415771802901
          ],
          [
            -122.4605097824941,
            47.51408324750561
          ],
          [
            -122.4606025860991,
            47.51400572483488
          ],
          [
            -122.46069607910766,
            47.51392481720205
          ],
          [
            -122.46079061846515,
            47.513840216273806
          ],
          [
            -122.46088671621852,
            47.51375146421441
          ],
          [
            -122.46106893502626,
            47.51357613480168
          ],
          [
            -122.46126594030358,
            47.513377733429095
          ],
          [
            -122.46145812884502,
            47.51317774619938
          ],
          [
            -122.46187205115804,
            47.5127400545645
          ],
          [
            -122.46210616467779,
            47.51248998591296
          ],
          [
            -122.46233921516807,
            47.51223203920569
          ],
          [
            -122.46257146216361,
            47.51196592754428
          ],
          [
            -122.46280324116798,
            47.51169126678438
          ],
          [
            -122.46293439632313,
            47.51153163987333
          ],
          [
            -122.46306349540572,
            47.51137123465402
          ],
          [
            -122.46319053841317,
            47.51121005112965
          ],
          [
            -122.4633155253439,
            47.51104808930217
          ],
          [
            -122.46343845619913,
            47.510885349170316
          ],
          [
            -122.46355933098022,
            47.510721830732024
          ],
          [
            -122.4636781496847,
            47.510557533990635
          ],
          [
            -122.46379491231204,
            47.51039245894691
          ]
        ]
      }
    }
  ]
}