{
  "type": "FeatureCollection",
  "features": [
    {
      "type": "Feature",
      "properties": {
        "route_id": "link-2",
        "gtfs_route_id": "2LINE",
        "gtfs_shape_id": "N23:E31",
        "gtfs_direction_id": 0,
        "source": "gis-data/sound_transit_gtfs",
        "trip_count": 507
      },
      "geometry": {
        "type": "LineString",
        "coordinates": [
          [
            -122.295179,
            47.815455
          ],
          [
            -122.295999,
            47.814976
          ],
          [
            -122.296267,
            47.814805
          ],
          [
            -122.296526,
            47.814627
          ],
          [
            -122.296706,
            47.814496
          ],
          [
            -122.296898,
            47.814342
          ],
          [
            -122.297077,
            47.814181
          ],
          [
            -122.297244,
            47.814014
          ],
          [
            -122.297348,
            47.8139
          ],
          [
            -122.297492,
            47.813724
          ],
          [
            -122.297581,
            47.813605
          ],
          [
            -122.297702,
            47.813421
          ],
          [
            -122.297825,
            47.813206
          ],
          [
            -122.298459,
            47.812029
          ],
          [
            -122.298547,
            47.811882
          ],
          [
            -122.298658,
            47.811712
          ],
          [
            -122.298778,
            47.811546
          ],
          [
            -122.298908,
            47.811382
          ],
          [
            -122.299047,
            47.811222
          ],
          [
            -122.299194,
            47.811065
          ],
          [
            -122.299351,
            47.810913
          ],
          [
            -122.299515,
            47.810764
          ],
          [
            -122.299689,
            47.81062
          ],
          [
            -122.299869,
            47.81048
          ],
          [
            -122.300058,
            47.810345
          ],
          [
            -122.300254,
            47.810215
          ],
          [
            -122.300493,
            47.81007
          ],
          [
            -122.300783,
            47.809907
          ],
          [
            -122.310646,
            47.804639
          ],
          [
            -122.311099,
            47.804387
          ],
          [
            -122.311417,
            47.804194
          ],
          [
            -122.311726,
            47.803994
          ],
          [
            -122.312023,
            47.803787
          ],
          [
            -122.312449,
            47.803463
          ],
          [
            -122.31543,
            47.800988
          ],
          [
            -122.315631,
            47.800809
          ],
          [
            -122.315794,
            47.80064
          ],
          [
            -122.315952,
            47.800443
          ],
          [
            -122.316084,
            47.800236
          ],
          [
            -122.31617,
            47.800066
          ],
          [
            -122.316252,
            47.799849
          ],
          [
            -122.316298,
            47.799672
          ],
          [
            -122.316327,
            47.799468
          ],
          [
            -122.316335,
            47.799181
          ],
          [
            -122.316302,
            47.796626
          ],
          [
            -122.316306,
            47.796351
          ],
          [
            -122.316318,
            47.796104
          ],
          [
            -122.316337,
            47.795857
          ],
          [
            -122.316399,
            47.795366
          ],
          [
            -122.316456,
            47.795044
          ],
          [
            -122.316705,
            47.793809
          ],
          [
            -122.316775,
            47.79338
          ],
          [
            -122.316802,
            47.793164
          ],
          [
            -122.316823,
            47.792949
          ],
          [
            -122.316846,
            47.792584
          ],
          [
            -122.316914,
            47.791063
          ],
          [
            -122.316913,
            47.790776
          ],
          [
            -122.316886,
            47.790569
          ],
          [
            -122.31683,
            47.790354
          ],
          [
            -122.316746,
            47.790143
          ],
          [
            -122.31666,
            47.789978
          ],
          [
            -122.316557,
            47.789817
          ],
          [
            -122.316456,
            47.789684
          ],
          [
            -122.315934,
            47.789065
          ],
          [
            -122.315805,
            47.788903
          ],
          [
            -122.315698,
            47.788746
          ],
          [
            -122.315584,
            47.788537
          ],
          [
            -122.315529,
            47.788407
          ],
          [
            -122.315468,
            47.78824
          ],
          [
            -122.315037,
            47.786981
          ],
          [
            -122.314963,
            47.786747
          ],
          [
            -122.31491,
            47.786518
          ],
          [
            -122.314891,
            47.786379
          ],
          [
            -122.314875,
            47.786101
          ],
          [
            -122.31485,
            47.783942
          ],
          [
            -122.314862,
            47.78373
          ],
          [
            -122.314893,
            47.783564
          ],
          [
            -122.314924,
            47.783465
          ],
          [
            -122.314963,
            47.783367
          ],
          [
            -122.315064,
            47.78318
          ],
          [
            -122.315818,
            47.782033
          ],
          [
            -122.315917,
            47.781875
          ],
          [
            -122.316046,
            47.781651
          ],
          [
            -122.316164,
            47.781424
          ],
          [
            -122.31627,
            47.781194
          ],
          [
            -122.316363,
            47.780961
          ],
          [
            -122.316445,
            47.780727
          ],
          [
            -122.316514,
            47.780491
          ],
          [
            -122.31659,
            47.780167
          ],
          [
            -122.317475,
            47.775786
          ],
          [
            -122.317536,
            47.775554
          ],
          [
            -122.317597,
            47.775356
          ],
          [
            -122.317667,
            47.775159
          ],
          [
            -122.317745,
            47.774964
          ],
          [
            -122.317832,
            47.774771
          ],
          [
            -122.317927,
            47.77458
          ],
          [
            -122.318031,
            47.77439
          ],
          [
            -122.318143,
            47.774203
          ],
          [
            -122.318263,
            47.774018
          ],
          [
            -122.318407,
            47.773815
          ],
          [
            -122.320846,
            47.770678
          ],
          [
            -122.321102,
            47.770331
          ],
          [
            -122.321248,
            47.770111
          ],
          [
            -122.321444,
            47.769775
          ],
          [
            -122.321614,
            47.769433
          ],
          [
            -122.321713,
            47.769201
          ],
          [
            -122.321838,
            47.76885
          ],
          [
            -122.321945,
            47.768455
          ],
          [
            -122.323147,
            47.763057
          ],
          [
            -122.323231,
            47.762766
          ],
          [
            -122.323289,
            47.762612
          ],
          [
            -122.323356,
            47.762459
          ],
          [
            -122.323431,
            47.762309
          ],
          [
            -122.323515,
            47.76216
          ],
          [
            -122.323608,
            47.762014
          ],
          [
            -122.323709,
            47.76187
          ],
          [
            -122.323872,
            47.761665
          ],
          [
            -122.327756,
            47.757308
          ],
          [
            -122.328052,
            47.756952
          ],
          [
            -122.328305,
            47.756603
          ],
          [
            -122.328458,
            47.756366
          ],
          [
            -122.32856,
            47.756196
          ],
          [
            -122.329014,
            47.755372
          ],
          [
            -122.329171,
            47.755071
          ],
          [
            -122.329318,
            47.754739
          ],
          [
            -122.329402,
            47.754515
          ],
          [
            -122.329474,
            47.754289
          ],
          [
            -122.32956,
            47.753947
          ],
          [
            -122.32962,
            47.753603
          ],
          [
            -122.329653,
            47.753257
          ],
          [
            -122.329659,
            47.75291
          ],
          [
            -122.329638,
            47.752564
          ],
          [
            -122.32959,
            47.752218
          ],
          [
            -122.329515,
            47.751875
          ],
          [
            -122.329451,
            47.751648
          ],
          [
            -122.329348,
            47.751351
          ],
          [
            -122.328784,
            47.749971
          ],
          [
            -122.328651,
            47.749605
          ],
          [
            -122.328589,
            47.749394
          ],
          [
            -122.328536,
            47.749181
          ],
          [
            -122.328493,
            47.748968
          ],
          [
            -122.328461,
            47.748753
          ],
          [
            -122.328438,
            47.748538
          ],
          [
            -122.328426,
            47.748323
          ],
          [
            -122.328424,
            47.748107
          ],
          [
            -122.328431,
            47.747892
          ],
          [
            -122.328449,
            47.747677
          ],
          [
            -122.328478,
            47.747462
          ],
          [
            -122.328516,
            47.747248
          ],
          [
            -122.328564,
            47.747035
          ],
          [
            -122.328678,
            47.746643
          ],
          [
            -122.329259,
            47.744919
          ],
          [
            -122.329335,
            47.744648
          ],
          [
            -122.329392,
            47.744361
          ],
          [
            -122.329427,
            47.744073
          ],
          [
            -122.329438,
            47.74388
          ],
          [
            -122.329439,
            47.743688
          ],
          [
            -122.32943,
            47.743495
          ],
          [
            -122.329411,
            47.743302
          ],
          [
            -122.329382,
            47.74311
          ],
          [
            -122.329344,
            47.742919
          ],
          [
            -122.329295,
            47.742729
          ],
          [
            -122.329204,
            47.742446
          ],
          [
            -122.329091,
            47.742167
          ],
          [
            -122.328956,
            47.741893
          ],
          [
            -122.328798,
            47.741618
          ],
          [
            -122.324823,
            47.735322
          ],
          [
            -122.324654,
            47.735064
          ],
          [
            -122.324217,
            47.734422
          ],
          [
            -122.324071,
            47.73418
          ],
          [
            -122.323996,
            47.734032
          ],
          [
            -122.323931,
            47.733883
          ],
          [
            -122.323876,
            47.733731
          ],
          [
            -122.323831,
            47.733578
          ],
          [
            -122.323796,
            47.733424
          ],
          [
            -122.32377,
            47.733269
          ],
          [
            -122.323753,
            47.733102
          ],
          [
            -122.323689,
            47.732229
          ],
          [
            -122.323675,
            47.731937
          ],
          [
            -122.323673,
            47.731574
          ],
          [
            -122.323751,
            47.726426
          ],
          [
            -122.323763,
            47.725965
          ],
          [
            -122.323898,
            47.722419
          ],
          [
            -122.323904,
            47.722076
          ],
          [
            -122.323892,
            47.721596
          ],
          [
            -122.323818,
            47.72036
          ],
          [
            -122.323813,
            47.719968
          ],
          [
            -122.323861,
            47.71878
          ],
          [
            -122.323884,
            47.718555
          ],
          [
            -122.323916,
            47.718331
          ],
          [
            -122.32396,
            47.718107
          ],
          [
            -122.324014,
            47.717885
          ],
          [
            -122.324078,
            47.717664
          ],
          [
            -122.324153,
            47.717444
          ],
          [
            -122.324238,
            47.717226
          ],
          [
            -122.324333,
            47.71701
          ],
          [
            -122.324438,
            47.716796
          ],
          [
            -122.324554,
            47.716585
          ],
          [
            -122.324679,
            47.716376
          ],
          [
            -122.324814,
            47.716169
          ],
          [
            -122.324974,
            47.715946
          ],
          [
            -122.325753,
            47.714953
          ],
          [
            -122.325885,
            47.714775
          ],
          [
            -122.325993,
            47.714619
          ],
          [
            -122.326174,
            47.714322
          ],
          [
            -122.326691,
            47.713404
          ],
          [
            -122.326882,
            47.713103
          ],
          [
            -122.327003,
            47.712935
          ],
          [
            -122.327149,
            47.712748
          ],
          [
            -122.328185,
            47.711486
          ],
          [
            -122.328359,
            47.71125
          ],
          [
            -122.328526,
            47.710991
          ],
          [
            -122.328626,
            47.710816
          ],
          [
            -122.328759,
            47.710548
          ],
          [
            -122.328836,
            47.710367
          ],
          [
            -122.328903,
            47.710185
          ],
          [
            -122.328961,
            47.710001
          ],
          [
            -122.32901,
            47.709815
          ],
          [
            -122.329049,
            47.709629
          ],
          [
            -122.329078,
            47.709442
          ],
          [
            -122.329109,
            47.709079
          ],
          [
            -122.329155,
            47.708001
          ],
          [
            -122.329151,
            47.707694
          ],
          [
            -122.329125,
            47.707384
          ],
          [
            -122.329074,
            47.707075
          ],
          [
            -122.329026,
            47.70687
          ],
          [
            -122.328969,
            47.706666
          ],
          [
            -122.328886,
            47.706421
          ],
          [
            -122.32857,
            47.70555
          ],
          [
            -122.328505,
            47.705348
          ],
          [
            -122.328467,
            47.705203
          ],
          [
            -122.32842,
            47.704947
          ],
          [
            -122.328406,
            47.704816
          ],
          [
            -122.328391,
            47.704474
          ],
          [
            -122.328358,
            47.70182
          ],
          [
            -122.328366,
            47.701474
          ],
          [
            -122.328381,
            47.701292
          ],
          [
            -122.328419,
            47.701029
          ],
          [
            -122.32878,
            47.699074
          ],
          [
            -122.328815,
            47.6988
          ],
          [
            -122.328835,
            47.698568
          ],
          [
            -122.328844,
            47.698336
          ],
          [
            -122.328844,
            47.698104
          ],
          [
            -122.328833,
            47.697872
          ],
          [
            -122.328811,
            47.69764
          ],
          [
            -122.328617,
            47.696273
          ],
          [
            -122.328577,
            47.695879
          ],
          [
            -122.328569,
            47.695663
          ],
          [
            -122.32857,
            47.695455
          ],
          [
            -122.328639,
            47.692156
          ],
          [
            -122.328631,
            47.691935
          ],
          [
            -122.328613,
            47.691713
          ],
          [
            -122.328584,
            47.691492
          ],
          [
            -122.328546,
            47.691271
          ],
          [
            -122.328497,
            47.691052
          ],
          [
            -122.328438,
            47.690833
          ],
          [
            -122.328369,
            47.690616
          ],
          [
            -122.328291,
            47.690401
          ],
          [
            -122.328202,
            47.690187
          ],
          [
            -122.328104,
            47.689975
          ],
          [
            -122.327996,
            47.689765
          ],
          [
            -122.327879,
            47.689558
          ],
          [
            -122.327752,
            47.689353
          ],
          [
            -122.327616,
            47.689151
          ],
          [
            -122.327471,
            47.688952
          ],
          [
            -122.327316,
            47.688756
          ],
          [
            -122.327153,
            47.688563
          ],
          [
            -122.326981,
            47.688374
          ],
          [
            -122.326801,
            47.688189
          ],
          [
            -122.326612,
            47.688007
          ],
          [
            -122.326415,
            47.687829
          ],
          [
            -122.326176,
            47.687627
          ],
          [
            -122.317976,
            47.680827
          ],
          [
            -122.31768,
            47.680576
          ],
          [
            -122.317412,
            47.680327
          ],
          [
            -122.317263,
            47.680173
          ],
          [
            -122.317121,
            47.680016
          ],
          [
            -122.316988,
            47.679855
          ],
          [
            -122.316864,
            47.679691
          ],
          [
            -122.316749,
            47.679524
          ],
          [
            -122.316642,
            47.679354
          ],
          [
            -122.316545,
            47.679182
          ],
          [
            -122.316457,
            47.679008
          ],
          [
            -122.316378,
            47.678831
          ],
          [
            -122.316309,
            47.678653
          ],
          [
            -122.316249,
            47.678473
          ],
          [
            -122.316199,
            47.678292
          ],
          [
            -122.316159,
            47.67811
          ],
          [
            -122.316128,
            47.677927
          ],
          [
            -122.316105,
            47.677719
          ],
          [
            -122.316092,
            47.677472
          ],
          [
            -122.31606,
            47.675578
          ],
          [
            -122.31603,
            47.675177
          ],
          [
            -122.316005,
            47.674977
          ],
          [
            -122.314435,
            47.665652
          ],
          [
            -122.314354,
            47.665049
          ],
          [
            -122.314299,
            47.664571
          ],
          [
            -122.314255,
            47.664092
          ],
          [
            -122.314221,
            47.663613
          ],
          [
            -122.314198,
            47.663134
          ],
          [
            -122.314184,
            47.662654
          ],
          [
            -122.314181,
            47.662174
          ],
          [
            -122.314247,
            47.659425
          ],
          [
            -122.314242,
            47.659298
          ],
          [
            -122.314228,
            47.659176
          ],
          [
            -122.314205,
            47.659055
          ],
          [
            -122.314172,
            47.658935
          ],
          [
            -122.314129,
            47.658816
          ],
          [
            -122.314077,
            47.658699
          ],
          [
            -122.314016,
            47.658584
          ],
          [
            -122.313945,
            47.658471
          ],
          [
            -122.313866,
            47.658362
          ],
          [
            -122.313778,
            47.658255
          ],
          [
            -122.313682,
            47.658152
          ],
          [
            -122.313577,
            47.658052
          ],
          [
            -122.313465,
            47.657956
          ],
          [
            -122.313345,
            47.657865
          ],
          [
            -122.313218,
            47.657778
          ],
          [
            -122.313085,
            47.657695
          ],
          [
            -122.312944,
            47.657618
          ],
          [
            -122.312798,
            47.657546
          ],
          [
            -122.312647,
            47.657479
          ],
          [
            -122.31249,
            47.657418
          ],
          [
            -122.312329,
            47.657363
          ],
          [
            -122.312163,
            47.657314
          ],
          [
            -122.311994,
            47.657271
          ],
          [
            -122.311799,
            47.65723
          ],
          [
            -122.311571,
            47.657191
          ],
          [
            -122.309087,
            47.656828
          ],
          [
            -122.308768,
            47.656777
          ],
          [
            -122.308515,
            47.656731
          ],
          [
            -122.308272,
            47.656681
          ],
          [
            -122.308032,
            47.656623
          ],
          [
            -122.307796,
            47.656559
          ],
          [
            -122.307564,
            47.656489
          ],
          [
            -122.307336,
            47.656413
          ],
          [
            -122.307113,
            47.65633
          ],
          [
            -122.306895,
            47.656242
          ],
          [
            -122.306683,
            47.656148
          ],
          [
            -122.306476,
            47.656048
          ],
          [
            -122.306276,
            47.655942
          ],
          [
            -122.306082,
            47.655831
          ],
          [
            -122.305894,
            47.655715
          ],
          [
            -122.305714,
            47.655594
          ],
          [
            -122.305541,
            47.655468
          ],
          [
            -122.305376,
            47.655338
          ],
          [
            -122.305218,
            47.655203
          ],
          [
            -122.305069,
            47.655064
          ],
          [
            -122.304928,
            47.654921
          ],
          [
            -122.304795,
            47.654774
          ],
          [
            -122.304672,
            47.654624
          ],
          [
            -122.304558,
            47.654471
          ],
          [
            -122.304452,
            47.654314
          ],
          [
            -122.304356,
            47.654155
          ],
          [
            -122.30427,
            47.653994
          ],
          [
            -122.304193,
            47.65383
          ],
          [
            -122.304126,
            47.653664
          ],
          [
            -122.304069,
            47.653497
          ],
          [
            -122.304022,
            47.653328
          ],
          [
            -122.303985,
            47.653158
          ],
          [
            -122.303953,
            47.652943
          ],
          [
            -122.303933,
            47.652678
          ],
          [
            -122.303838,
            47.649351
          ],
          [
            -122.303792,
            47.647527
          ],
          [
            -122.303787,
            47.647014
          ],
          [
            -122.303795,
            47.646639
          ],
          [
            -122.303815,
            47.646265
          ],
          [
            -122.303844,
            47.64589
          ],
          [
            -122.303885,
            47.645516
          ],
          [
            -122.303936,
            47.645142
          ],
          [
            -122.303997,
            47.64477
          ],
          [
            -122.304069,
            47.644398
          ],
          [
            -122.304151,
            47.644027
          ],
          [
            -122.304244,
            47.643657
          ],
          [
            -122.304347,
            47.643288
          ],
          [
            -122.30446,
            47.642921
          ],
          [
            -122.304584,
            47.642556
          ],
          [
            -122.304718,
            47.642192
          ],
          [
            -122.304862,
            47.641829
          ],
          [
            -122.305017,
            47.641469
          ],
          [
            -122.305181,
            47.641111
          ],
          [
            -122.305356,
            47.640755
          ],
          [
            -122.30554,
            47.640401
          ],
          [
            -122.305734,
            47.64005
          ],
          [
            -122.305938,
            47.639701
          ],
          [
            -122.306152,
            47.639355
          ],
          [
            -122.306376,
            47.639011
          ],
          [
            -122.306609,
            47.638671
          ],
          [
            -122.306852,
            47.638334
          ],
          [
            -122.307104,
            47.638
          ],
          [
            -122.307425,
            47.637597
          ],
          [
            -122.318955,
            47.623523
          ],
          [
            -122.319226,
            47.62317
          ],
          [
            -122.319382,
            47.622943
          ],
          [
            -122.319526,
            47.622712
          ],
          [
            -122.319658,
            47.622479
          ],
          [
            -122.319778,
            47.622242
          ],
          [
            -122.319886,
            47.622003
          ],
          [
            -122.319981,
            47.621761
          ],
          [
            -122.320064,
            47.621517
          ],
          [
            -122.320134,
            47.621271
          ],
          [
            -122.320191,
            47.621024
          ],
          [
            -122.320236,
            47.620776
          ],
          [
            -122.320279,
            47.620401
          ],
          [
            -122.320292,
            47.620063
          ],
          [
            -122.320261,
            47.61798
          ],
          [
            -122.320263,
            47.61774
          ],
          [
            -122.320279,
            47.617516
          ],
          [
            -122.320303,
            47.61734
          ],
          [
            -122.320338,
            47.617164
          ],
          [
            -122.320384,
            47.61699
          ],
          [
            -122.32044,
            47.616817
          ],
          [
            -122.320506,
            47.616646
          ],
          [
            -122.320582,
            47.616477
          ],
          [
            -122.320669,
            47.616309
          ],
          [
            -122.320765,
            47.616145
          ],
          [
            -122.320871,
            47.615983
          ],
          [
            -122.320987,
            47.615825
          ],
          [
            -122.321112,
            47.615669
          ],
          [
            -122.321246,
            47.615517
          ],
          [
            -122.32139,
            47.615369
          ],
          [
            -122.321542,
            47.615225
          ],
          [
            -122.321702,
            47.615085
          ],
          [
            -122.321871,
            47.61495
          ],
          [
            -122.322048,
            47.61482
          ],
          [
            -122.322232,
            47.614694
          ],
          [
            -122.322424,
            47.614573
          ],
          [
            -122.322623,
            47.614458
          ],
          [
            -122.322828,
            47.614349
          ],
          [
            -122.32304,
            47.614245
          ],
          [
            -122.323258,
            47.614147
          ],
          [
            -122.323482,
            47.614055
          ],
          [
            -122.323711,
            47.613969
          ],
          [
            -122.323945,
            47.61389
          ],
          [
            -122.324183,
            47.613817
          ],
          [
            -122.324426,
            47.613751
          ],
          [
            -122.324673,
            47.613691
          ],
          [
            -122.324922,
            47.613638
          ],
          [
            -122.325175,
            47.613592
          ],
          [
            -122.32543,
            47.613553
          ],
          [
            -122.325688,
            47.613521
          ],
          [
            -122.325947,
            47.613496
          ],
          [
            -122.326207,
            47.613478
          ],
          [
            -122.326469,
            47.613468
          ],
          [
            -122.32673,
            47.613464
          ],
          [
            -122.326992,
            47.613468
          ],
          [
            -122.327253,
            47.613479
          ],
          [
            -122.327513,
            47.613497
          ],
          [
            -122.327772,
            47.613522
          ],
          [
            -122.32803,
            47.613554
          ],
          [
            -122.328285,
            47.613593
          ],
          [
            -122.328538,
            47.613639
          ],
          [
            -122.328741,
            47.613681
          ],
          [
            -122.329716,
            47.613901
          ],
          [
            -122.329912,
            47.613936
          ],
          [
            -122.330061,
            47.613955
          ],
          [
            -122.330211,
            47.613967
          ],
          [
            -122.330363,
            47.613972
          ],
          [
            -122.330515,
            47.61397
          ],
          [
            -122.330666,
            47.613961
          ],
          [
            -122.330815,
            47.613945
          ],
          [
            -122.330963,
            47.613923
          ],
          [
            -122.331109,
            47.613893
          ],
          [
            -122.331266,
            47.613852
          ],
          [
            -122.331463,
            47.613788
          ],
          [
            -122.331673,
            47.613705
          ],
          [
            -122.33549,
            47.612109
          ],
          [
            -122.336083,
            47.61188
          ],
          [
            -122.337899,
            47.611117
          ],
          [
            -122.338008,
            47.61106
          ],
          [
            -122.338105,
            47.610996
          ],
          [
            -122.33819,
            47.610924
          ],
          [
            -122.338254,
            47.610853
          ],
          [
            -122.338306,
            47.610778
          ],
          [
            -122.338348,
            47.610691
          ],
          [
            -122.338372,
            47.61061
          ],
          [
            -122.338382,
            47.610518
          ],
          [
            -122.338369,
            47.610399
          ],
          [
            -122.338328,
            47.610283
          ],
          [
            -122.338264,
            47.610179
          ],
          [
            -122.338156,
            47.610047
          ],
          [
            -122.336942,
            47.608719
          ],
          [
            -122.336556,
            47.608328
          ],
          [
            -122.335652,
            47.607341
          ],
          [
            -122.335524,
            47.607196
          ],
          [
            -122.335216,
            47.60683
          ],
          [
            -122.332172,
            47.603504
          ],
          [
            -122.332035,
            47.603359
          ],
          [
            -122.331753,
            47.603079
          ],
          [
            -122.330709,
            47.601939
          ],
          [
            -122.330564,
            47.601804
          ],
          [
            -122.330386,
            47.601671
          ],
          [
            -122.328817,
            47.600661
          ],
          [
            -122.32867,
            47.600562
          ],
          [
            -122.328573,
            47.600489
          ],
          [
            -122.328488,
            47.600416
          ],
          [
            -122.328409,
            47.60034
          ],
          [
            -122.328282,
            47.60019
          ],
          [
            -122.328181,
            47.600032
          ],
          [
            -122.328137,
            47.599943
          ],
          [
            -122.328102,
            47.599854
          ],
          [
            -122.328058,
            47.599684
          ],
          [
            -122.328041,
            47.599488
          ],
          [
            -122.328064,
            47.598938
          ],
          [
            -122.328047,
            47.597869
          ],
          [
            -122.32822,
            47.597294
          ],
          [
            -122.328227,
            47.596685
          ],
          [
            -122.328309,
            47.59608
          ],
          [
            -122.328295,
            47.595474
          ],
          [
            -122.328105,
            47.594895
          ],
          [
            -122.327891,
            47.594324
          ],
          [
            -122.327676,
            47.593753
          ],
          [
            -122.327436,
            47.593194
          ],
          [
            -122.326999,
            47.592777
          ],
          [
            -122.326427,
            47.592577
          ],
          [
            -122.325819,
            47.592558
          ],
          [
            -122.325219,
            47.592662
          ],
          [
            -122.324625,
            47.592803
          ],
          [
            -122.32404,
            47.592976
          ],
          [
            -122.323465,
            47.593178
          ],
          [
            -122.322895,
            47.593395
          ],
          [
            -122.322325,
            47.593611
          ],
          [
            -122.321754,
            47.593826
          ],
          [
            -122.321172,
            47.594009
          ],
          [
            -122.320578,
            47.594144
          ],
          [
            -122.319978,
            47.594255
          ],
          [
            -122.319378,
            47.594366
          ],
          [
            -122.318781,
            47.59449
          ],
          [
            -122.318199,
            47.594672
          ],
          [
            -122.317629,
            47.594888
          ],
          [
            -122.317058,
            47.595101
          ],
          [
            -122.316469,
            47.595258
          ],
          [
            -122.315862,
            47.595317
          ],
          [
            -122.315254,
            47.595279
          ],
          [
            -122.314661,
            47.595142
          ],
          [
            -122.314104,
            47.594897
          ],
          [
            -122.313602,
            47.59455
          ],
          [
            -122.313116,
            47.594182
          ],
          [
            -122.312688,
            47.593749
          ],
          [
            -122.312318,
            47.593265
          ],
          [
            -122.311948,
            47.59278
          ],
          [
            -122.311578,
            47.592295
          ],
          [
            -122.311207,
            47.591811
          ],
          [
            -122.3108,
            47.591357
          ],
          [
            -122.31032,
            47.590982
          ],
          [
            -122.309786,
            47.590689
          ],
          [
            -122.309216,
            47.590472
          ],
          [
            -122.308625,
            47.590325
          ],
          [
            -122.308021,
            47.590243
          ],
          [
            -122.307412,
            47.590219
          ],
          [
            -122.306802,
            47.590223
          ],
          [
            -122.306192,
            47.590227
          ],
          [
            -122.305582,
            47.590232
          ],
          [
            -122.304972,
            47.590237
          ],
          [
            -122.304362,
            47.590242
          ],
          [
            -122.303752,
            47.590247
          ],
          [
            -122.303142,
            47.590251
          ],
          [
            -122.302532,
            47.590256
          ],
          [
            -122.301923,
            47.590261
          ],
          [
            -122.301313,
            47.590266
          ],
          [
            -122.300703,
            47.590269
          ],
          [
            -122.300093,
            47.590269
          ],
          [
            -122.299483,
            47.590267
          ],
          [
            -122.298873,
            47.590264
          ],
          [
            -122.298263,
            47.590267
          ],
          [
            -122.297654,
            47.590289
          ],
          [
            -122.297045,
            47.590329
          ],
          [
            -122.296437,
            47.590371
          ],
          [
            -122.295828,
            47.590411
          ],
          [
            -122.295219,
            47.590436
          ],
          [
            -122.294609,
            47.590443
          ],
          [
            -122.293999,
            47.590438
          ],
          [
            -122.293389,
            47.590433
          ],
          [
            -122.292779,
            47.590427
          ],
          [
            -122.292169,
            47.590422
          ],
          [
            -122.29156,
            47.590416
          ],
          [
            -122.29095,
            47.590411
          ],
          [
            -122.29034,
            47.590406
          ],
          [
            -122.28973,
            47.5904
          ],
          [
            -122.28912,
            47.590395
          ],
          [
            -122.28851,
            47.590388
          ],
          [
            -122.2879,
            47.590371
          ],
          [
            -122.287291,
            47.590339
          ],
          [
            -122.286683,
            47.590292
          ],
          [
            -122.286075,
            47.590243
          ],
          [
            -122.285467,
            47.590198
          ],
          [
            -122.284858,
            47.590173
          ],
          [
            -122.284248,
            47.590159
          ],
          [
            -122.283638,
            47.590145
          ],
          [
            -122.283028,
            47.590132
          ],
          [
            -122.282419,
            47.590118
          ],
          [
            -122.281809,
            47.590104
          ],
          [
            -122.281199,
            47.590092
          ],
          [
            -122.280589,
            47.590081
          ],
          [
            -122.279979,
            47.590072
          ],
          [
            -122.27937,
            47.590061
          ],
          [
            -122.27876,
            47.590048
          ],
          [
            -122.27815,
            47.590034
          ],
          [
            -122.27754,
            47.590021
          ],
          [
            -122.276931,
            47.590007
          ],
          [
            -122.276321,
            47.589993
          ],
          [
            -122.275711,
            47.58998
          ],
          [
            -122.275101,
            47.589966
          ],
          [
            -122.274492,
            47.589952
          ],
          [
            -122.273882,
            47.589939
          ],
          [
            -122.273272,
            47.589925
          ],
          [
            -122.272662,
            47.589911
          ],
          [
            -122.272053,
            47.589898
          ],
          [
            -122.271443,
            47.589884
          ],
          [
            -122.270833,
            47.58987
          ],
          [
            -122.270223,
            47.589857
          ],
          [
            -122.269614,
            47.589843
          ],
          [
            -122.269004,
            47.589829
          ],
          [
            -122.268394,
            47.589816
          ],
          [
            -122.267784,
            47.589802
          ],
          [
            -122.267174,
            47.589788
          ],
          [
            -122.266565,
            47.589774
          ],
          [
            -122.265955,
            47.589761
          ],
          [
            -122.265345,
            47.589747
          ],
          [
            -122.264736,
            47.589733
          ],
          [
            -122.264126,
            47.589719
          ],
          [
            -122.263516,
            47.589705
          ],
          [
            -122.262906,
            47.589691
          ],
          [
            -122.262296,
            47.589677
          ],
          [
            -122.261687,
            47.589663
          ],
          [
            -122.261077,
            47.589648
          ],
          [
            -122.260467,
            47.589631
          ],
          [
            -122.259858,
            47.589613
          ],
          [
            -122.259248,
            47.589597
          ],
          [
            -122.258638,
            47.589582
          ],
          [
            -122.258028,
            47.589568
          ],
          [
            -122.257419,
            47.589553
          ],
          [
            -122.256809,
            47.589539
          ],
          [
            -122.256199,
            47.589525
          ],
          [
            -122.255589,
            47.58951
          ],
          [
            -122.25498,
            47.589496
          ],
          [
            -122.25437,
            47.589481
          ],
          [
            -122.25376,
            47.589472
          ],
          [
            -122.253151,
            47.589491
          ],
          [
            -122.252544,
            47.589548
          ],
          [
            -122.251942,
            47.589644
          ],
          [
            -122.251347,
            47.589781
          ],
          [
            -122.250764,
            47.589959
          ],
          [
            -122.250196,
            47.590182
          ],
          [
            -122.249647,
            47.590446
          ],
          [
            -122.249107,
            47.59073
          ],
          [
            -122.248568,
            47.591016
          ],
          [
            -122.248024,
            47.59129
          ],
          [
            -122.247462,
            47.591527
          ],
          [
            -122.246883,
            47.591719
          ],
          [
            -122.246292,
            47.59187
          ],
          [
            -122.245692,
            47.59198
          ],
          [
            -122.245087,
            47.59205
          ],
          [
            -122.244478,
            47.592082
          ],
          [
            -122.243868,
            47.592075
          ],
          [
            -122.24326,
            47.59203
          ],
          [
            -122.242656,
            47.591946
          ],
          [
            -122.242059,
            47.591823
          ],
          [
            -122.241472,
            47.591658
          ],
          [
            -122.240898,
            47.59145
          ],
          [
            -122.240343,
            47.591198
          ],
          [
            -122.239804,
            47.590913
          ],
          [
            -122.239268,
            47.590622
          ],
          [
            -122.238729,
            47.590336
          ],
          [
            -122.238183,
            47.590064
          ],
          [
            -122.237632,
            47.589803
          ],
          [
            -122.237075,
            47.589556
          ],
          [
            -122.236512,
            47.589321
          ],
          [
            -122.235944,
            47.589097
          ],
          [
            -122.235372,
            47.588887
          ],
          [
            -122.234796,
            47.588685
          ],
          [
            -122.23422,
            47.588486
          ],
          [
            -122.233643,
            47.588286
          ],
          [
            -122.233067,
            47.588087
          ],
          [
            -122.232491,
            47.587888
          ],
          [
            -122.231915,
            47.587687
          ],
          [
            -122.231342,
            47.587478
          ],
          [
            -122.230773,
            47.587259
          ],
          [
            -122.230209,
            47.587027
          ],
          [
            -122.229649,
            47.586784
          ],
          [
            -122.229095,
            47.586529
          ],
          [
            -122.228544,
            47.586267
          ],
          [
            -122.227993,
            47.586005
          ],
          [
            -122.227443,
            47.585743
          ],
          [
            -122.226892,
            47.585481
          ],
          [
            -122.226341,
            47.585219
          ],
          [
            -122.22579,
            47.584958
          ],
          [
            -122.225234,
            47.584708
          ],
          [
            -122.224673,
            47.584468
          ],
          [
            -122.224112,
            47.584228
          ],
          [
            -122.223551,
            47.583988
          ],
          [
            -122.222991,
            47.583748
          ],
          [
            -122.22243,
            47.583508
          ],
          [
            -122.221869,
            47.583268
          ],
          [
            -122.221309,
            47.583028
          ],
          [
            -122.220748,
            47.582789
          ],
          [
            -122.220187,
            47.582548
          ],
          [
            -122.219635,
            47.58229
          ],
          [
            -122.219097,
            47.582003
          ],
          [
            -122.218577,
            47.581684
          ],
          [
            -122.218075,
            47.581337
          ],
          [
            -122.217577,
            47.580985
          ],
          [
            -122.217079,
            47.580633
          ],
          [
            -122.216577,
            47.580287
          ],
          [
            -122.216055,
            47.579971
          ],
          [
            -122.215514,
            47.57969
          ],
          [
            -122.214957,
            47.579442
          ],
          [
            -122.214387,
            47.579226
          ],
          [
            -122.213806,
            47.579041
          ],
          [
            -122.213216,
            47.578887
          ],
          [
            -122.212619,
            47.578762
          ],
          [
            -122.212017,
            47.578664
          ],
          [
            -122.211413,
            47.57858
          ],
          [
            -122.210809,
            47.578496
          ],
          [
            -122.210205,
            47.578411
          ],
          [
            -122.2096,
            47.578327
          ],
          [
            -122.208996,
            47.578243
          ],
          [
            -122.208392,
            47.578159
          ],
          [
            -122.207788,
            47.578075
          ],
          [
            -122.207184,
            47.577991
          ],
          [
            -122.206579,
            47.577918
          ],
          [
            -122.20597,
            47.577875
          ],
          [
            -122.205361,
            47.577863
          ],
          [
            -122.204751,
            47.577883
          ],
          [
            -122.204144,
            47.577937
          ],
          [
            -122.20354,
            47.578022
          ],
          [
            -122.202942,
            47.57814
          ],
          [
            -122.20235,
            47.578287
          ],
          [
            -122.20176,
            47.578442
          ],
          [
            -122.20117,
            47.578596
          ],
          [
            -122.20058,
            47.578751
          ],
          [
            -122.19999,
            47.578905
          ],
          [
            -122.1994,
            47.57906
          ],
          [
            -122.19881,
            47.579214
          ],
          [
            -122.19822,
            47.579369
          ],
          [
            -122.19763,
            47.579524
          ],
          [
            -122.197039,
            47.579676
          ],
          [
            -122.196444,
            47.579807
          ],
          [
            -122.195841,
            47.579897
          ],
          [
            -122.195233,
            47.579944
          ],
          [
            -122.194623,
            47.579948
          ],
          [
            -122.194014,
            47.579908
          ],
          [
            -122.19341,
            47.579825
          ],
          [
            -122.192811,
            47.579709
          ],
          [
            -122.192213,
            47.57959
          ],
          [
            -122.191615,
            47.579472
          ],
          [
            -122.191009,
            47.579406
          ],
          [
            -122.190402,
            47.579451
          ],
          [
            -122.189806,
            47.579579
          ],
          [
            -122.189235,
            47.579791
          ],
          [
            -122.188707,
            47.580094
          ],
          [
            -122.188252,
            47.580499
          ],
          [
            -122.187923,
            47.58101
          ],
          [
            -122.187785,
            47.5816
          ],
          [
            -122.187818,
            47.582209
          ],
          [
            -122.187876,
            47.582816
          ],
          [
            -122.188108,
            47.583375
          ],
          [
            -122.188453,
            47.583878
          ],
          [
            -122.1888,
            47.58438
          ],
          [
            -122.189148,
            47.584881
          ],
          [
            -122.189495,
            47.585382
          ],
          [
            -122.189842,
            47.585884
          ],
          [
            -122.19019,
            47.586385
          ],
          [
            -122.19054,
            47.58689
          ],
          [
            -122.19088,
            47.58739
          ],
          [
            -122.19123,
            47.58789
          ],
          [
            -122.19152,
            47.58843
          ],
          [
            -122.19174,
            47.58899
          ],
          [
            -122.19197,
            47.58956
          ],
          [
            -122.19229,
            47.59008
          ],
          [
            -122.19264,
            47.59058
          ],
          [
            -122.19299,
            47.59108
          ],
          [
            -122.19334,
            47.59157
          ],
          [
            -122.1937,
            47.59207
          ],
          [
            -122.19405,
            47.59257
          ],
          [
            -122.19434,
            47.5931
          ],
          [
            -122.19451,
            47.59369
          ],
          [
            -122.19451,
            47.5943
          ],
          [
            -122.19435,
            47.59488
          ],
          [
            -122.19411,
            47.59544
          ],
          [
            -122.19387,
            47.596
          ],
          [
            -122.19362,
            47.59656
          ],
          [
            -122.19327,
            47.59706
          ],
          [
            -122.19284,
            47.59749
          ],
          [
            -122.19237,
            47.59788
          ],
          [
            -122.1919,
            47.59827
          ],
          [
            -122.19149,
            47.59872
          ],
          [
            -122.19118,
            47.59925
          ],
          [
            -122.19101,
            47.59983
          ],
          [
            -122.19097,
            47.60044
          ],
          [
            -122.19096,
            47.60105
          ],
          [
            -122.19096,
            47.60166
          ],
          [
            -122.19095,
            47.60227
          ],
          [
            -122.19094,
            47.60288
          ],
          [
            -122.19093,
            47.60349
          ],
          [
            -122.19093,
            47.6041
          ],
          [
            -122.19094,
            47.60471
          ],
          [
            -122.19097,
            47.60531
          ],
          [
            -122.19101,
            47.60592
          ],
          [
            -122.19104,
            47.60653
          ],
          [
            -122.19107,
            47.60714
          ],
          [
            -122.1911,
            47.60775
          ],
          [
            -122.19113,
            47.60836
          ],
          [
            -122.19118,
            47.60897
          ],
          [
            -122.19152,
            47.60946
          ],
          [
            -122.19205,
            47.60974
          ],
          [
            -122.19264,
            47.60992
          ],
          [
            -122.19319,
            47.61017
          ],
          [
            -122.19357,
            47.61064
          ],
          [
            -122.19362,
            47.61124
          ],
          [
            -122.19361,
            47.61185
          ],
          [
            -122.19357,
            47.61246
          ],
          [
            -122.19353,
            47.61307
          ],
          [
            -122.19353,
            47.61368
          ],
          [
            -122.19356,
            47.61429
          ],
          [
            -122.19356,
            47.61489
          ],
          [
            -122.19307,
            47.61521
          ],
          [
            -122.19246,
            47.61521
          ],
          [
            -122.19185,
            47.61521
          ],
          [
            -122.19124,
            47.61521
          ],
          [
            -122.19063,
            47.6152
          ],
          [
            -122.19002,
            47.6152
          ],
          [
            -122.18941,
            47.6152
          ],
          [
            -122.1888,
            47.6152
          ],
          [
            -122.18819,
            47.61519
          ],
          [
            -122.18758,
            47.61519
          ],
          [
            -122.18697,
            47.61518
          ],
          [
            -122.18636,
            47.6152
          ],
          [
            -122.18576,
            47.61528
          ],
          [
            -122.18518,
            47.61546
          ],
          [
            -122.18464,
            47.61575
          ],
          [
            -122.18418,
            47.61615
          ],
          [
            -122.18386,
            47.61666
          ],
          [
            -122.18375,
            47.61726
          ],
          [
            -122.18369,
            47.61787
          ],
          [
            -122.18363,
            47.61848
          ],
          [
            -122.18358,
            47.61908
          ],
          [
            -122.18345,
            47.61968
          ],
          [
            -122.18324,
            47.62025
          ],
          [
            -122.18303,
            47.62082
          ],
          [
            -122.18282,
            47.62139
          ],
          [
            -122.1826,
            47.62197
          ],
          [
            -122.18238,
            47.62253
          ],
          [
            -122.182,
            47.623
          ],
          [
            -122.18147,
            47.6233
          ],
          [
            -122.18088,
            47.62346
          ],
          [
            -122.18027,
            47.62354
          ],
          [
            -122.17967,
            47.62362
          ],
          [
            -122.17906,
            47.62369
          ],
          [
            -122.17846,
            47.62377
          ],
          [
            -122.17785,
            47.62384
          ],
          [
            -122.17725,
            47.62392
          ],
          [
            -122.17664,
            47.624
          ],
          [
            -122.17604,
            47.62407
          ],
          [
            -122.17543,
            47.62415
          ],
          [
            -122.17483,
            47.62422
          ],
          [
            -122.17422,
            47.62426
          ],
          [
            -122.17361,
            47.62426
          ],
          [
            -122.173,
            47.62425
          ],
          [
            -122.17239,
            47.62425
          ],
          [
            -122.17178,
            47.62425
          ],
          [
            -122.17117,
            47.62428
          ],
          [
            -122.17056,
            47.62432
          ],
          [
            -122.16995,
            47.62435
          ],
          [
            -122.16934,
            47.62439
          ],
          [
            -122.16874,
            47.62442
          ],
          [
            -122.16813,
            47.62444
          ],
          [
            -122.16752,
            47.62445
          ],
          [
            -122.16691,
            47.62444
          ],
          [
            -122.1663,
            47.62444
          ],
          [
            -122.16569,
            47.62443
          ],
          [
            -122.16508,
            47.62443
          ],
          [
            -122.16447,
            47.62442
          ],
          [
            -122.16386,
            47.62441
          ],
          [
            -122.16325,
            47.62441
          ],
          [
            -122.16264,
            47.6244
          ],
          [
            -122.16203,
            47.6244
          ],
          [
            -122.16142,
            47.62439
          ],
          [
            -122.16081,
            47.62439
          ],
          [
            -122.1602,
            47.6244
          ],
          [
            -122.1596,
            47.62454
          ],
          [
            -122.15906,
            47.6248
          ],
          [
            -122.15862,
            47.62522
          ],
          [
            -122.15831,
            47.62575
          ],
          [
            -122.15802,
            47.62628
          ],
          [
            -122.15772,
            47.62681
          ],
          [
            -122.15742,
            47.62735
          ],
          [
            -122.15713,
            47.62788
          ],
          [
            -122.15681,
            47.6284
          ],
          [
            -122.15635,
            47.6288
          ],
          [
            -122.1558,
            47.62904
          ],
          [
            -122.1552,
            47.62915
          ],
          [
            -122.15459,
            47.62921
          ],
          [
            -122.15398,
            47.62927
          ],
          [
            -122.15338,
            47.62935
          ],
          [
            -122.15278,
            47.62944
          ],
          [
            -122.15218,
            47.62956
          ],
          [
            -122.15158,
            47.6297
          ],
          [
            -122.151,
            47.62986
          ],
          [
            -122.15041,
            47.63005
          ],
          [
            -122.14984,
            47.63025
          ],
          [
            -122.14928,
            47.63049
          ],
          [
            -122.14872,
            47.63074
          ],
          [
            -122.14818,
            47.63102
          ],
          [
            -122.14763,
            47.63129
          ],
          [
            -122.14709,
            47.63157
          ],
          [
            -122.14655,
            47.63185
          ],
          [
            -122.146,
            47.63212
          ],
          [
            -122.14546,
            47.6324
          ],
          [
            -122.14492,
            47.63268
          ],
          [
            -122.14437,
            47.63295
          ],
          [
            -122.14383,
            47.63323
          ],
          [
            -122.14329,
            47.63351
          ],
          [
            -122.14275,
            47.63379
          ],
          [
            -122.14222,
            47.63409
          ],
          [
            -122.14169,
            47.6344
          ],
          [
            -122.14118,
            47.63473
          ],
          [
            -122.14067,
            47.63508
          ],
          [
            -122.14017,
            47.63542
          ],
          [
            -122.13967,
            47.63577
          ],
          [
            -122.13917,
            47.63611
          ],
          [
            -122.13866,
            47.63646
          ],
          [
            -122.13816,
            47.6368
          ],
          [
            -122.13766,
            47.63715
          ],
          [
            -122.13715,
            47.63749
          ],
          [
            -122.13667,
            47.63786
          ],
          [
            -122.1362,
            47.63825
          ],
          [
            -122.13576,
            47.63867
          ],
          [
            -122.13535,
            47.63913
          ],
          [
            -122.13498,
            47.63961
          ],
          [
            -122.13464,
            47.64012
          ],
          [
            -122.13436,
            47.64065
          ],
          [
            -122.13412,
            47.64122
          ],
          [
            -122.13392,
            47.64179
          ],
          [
            -122.13372,
            47.64237
          ],
          [
            -122.13352,
            47.64295
          ],
          [
            -122.13336,
            47.64353
          ],
          [
            -122.13342,
            47.64414
          ],
          [
            -122.13354,
            47.64473
          ],
          [
            -122.13367,
            47.64533
          ],
          [
            -122.13373,
            47.64565
          ],
          [
            -122.13373,
            47.64567
          ],
          [
            -122.13374,
            47.6457
          ],
          [
            -122.1338,
            47.64591
          ],
          [
            -122.13399,
            47.64633
          ],
          [
            -122.13409,
            47.64648
          ],
          [
            -122.13507,
            47.64799
          ],
          [
            -122.13521,
            47.64822
          ],
          [
            -122.13535,
            47.64844
          ],
          [
            -122.13548,
            47.64866
          ],
          [
            -122.13561,
            47.64888
          ],
          [
            -122.13571,
            47.64909
          ],
          [
            -122.13583,
            47.64931
          ],
          [
            -122.13643,
            47.65051
          ],
          [
            -122.13653,
            47.65071
          ],
          [
            -122.13665,
            47.65098
          ],
          [
            -122.13672,
            47.65115
          ],
          [
            -122.13678,
            47.65131
          ],
          [
            -122.1368,
            47.6514
          ],
          [
            -122.13685,
            47.65157
          ],
          [
            -122.13686,
            47.65165
          ],
          [
            -122.1369,
            47.65182
          ],
          [
            -122.13692,
            47.65208
          ],
          [
            -122.13693,
            47.65225
          ],
          [
            -122.13693,
            47.65234
          ],
          [
            -122.13693,
            47.65251
          ],
          [
            -122.13692,
            47.6526
          ],
          [
            -122.13691,
            47.65277
          ],
          [
            -122.13688,
            47.65295
          ],
          [
            -122.13685,
            47.65309
          ],
          [
            -122.13681,
            47.65327
          ],
          [
            -122.13678,
            47.65339
          ],
          [
            -122.13666,
            47.65384
          ],
          [
            -122.13662,
            47.65401
          ],
          [
            -122.1366,
            47.65412
          ],
          [
            -122.13655,
            47.65433
          ],
          [
            -122.13653,
            47.65451
          ],
          [
            -122.13651,
            47.65468
          ],
          [
            -122.13651,
            47.65491
          ],
          [
            -122.13651,
            47.65502
          ],
          [
            -122.13652,
            47.65536
          ],
          [
            -122.13655,
            47.65584
          ],
          [
            -122.13657,
            47.65611
          ],
          [
            -122.13657,
            47.65626
          ],
          [
            -122.13657,
            47.65639
          ],
          [
            -122.13656,
            47.65656
          ],
          [
            -122.13654,
            47.65673
          ],
          [
            -122.13651,
            47.65691
          ],
          [
            -122.13647,
            47.65708
          ],
          [
            -122.13643,
            47.65725
          ],
          [
            -122.13637,
            47.65741
          ],
          [
            -122.13631,
            47.65758
          ],
          [
            -122.13623,
            47.65775
          ],
          [
            -122.13613,
            47.65796
          ],
          [
            -122.13597,
            47.65825
          ],
          [
            -122.13469,
            47.66053
          ],
          [
            -122.13457,
            47.66076
          ],
          [
            -122.13434,
            47.66129
          ],
          [
            -122.13389,
            47.66234
          ],
          [
            -122.13372,
            47.66274
          ],
          [
            -122.13362,
            47.66294
          ],
          [
            -122.13345,
            47.66323
          ],
          [
            -122.13319,
            47.66361
          ],
          [
            -122.13297,
            47.66389
          ],
          [
            -122.13264,
            47.66425
          ],
          [
            -122.13227,
            47.66459
          ],
          [
            -122.13188,
            47.66491
          ],
          [
            -122.13166,
            47.66507
          ],
          [
            -122.13122,
            47.66536
          ],
          [
            -122.13074,
            47.66563
          ],
          [
            -122.13065,
            47.66568
          ],
          [
            -122.13024,
            47.66588
          ],
          [
            -122.12971,
            47.66611
          ],
          [
            -122.1293,
            47.66626
          ],
          [
            -122.12902,
            47.66635
          ],
          [
            -122.12859,
            47.66648
          ],
          [
            -122.1283,
            47.66655
          ],
          [
            -122.12786,
            47.66666
          ],
          [
            -122.12726,
            47.66677
          ],
          [
            -122.12695,
            47.66681
          ],
          [
            -122.12665,
            47.66685
          ],
          [
            -122.12613,
            47.66689
          ],
          [
            -122.12552,
            47.66693
          ],
          [
            -122.12441,
            47.66698
          ],
          [
            -122.12369,
            47.667
          ],
          [
            -122.12284,
            47.66702
          ],
          [
            -122.12247,
            47.66701
          ],
          [
            -122.12083,
            47.667
          ],
          [
            -122.11766,
            47.66698
          ],
          [
            -122.11741,
            47.66698
          ],
          [
            -122.11614,
            47.66695
          ],
          [
            -122.11584,
            47.66694
          ],
          [
            -122.11289,
            47.66684
          ],
          [
            -122.1122,
            47.66683
          ],
          [
            -122.1118,
            47.66685
          ],
          [
            -122.1116,
            47.66687
          ],
          [
            -122.1114,
            47.66689
          ],
          [
            -122.1112,
            47.66692
          ],
          [
            -122.11103,
            47.66695
          ],
          [
            -122.11091,
            47.66698
          ],
          [
            -122.11073,
            47.66702
          ],
          [
            -122.10855,
            47.66747
          ],
          [
            -122.10849,
            47.66748
          ],
          [
            -122.10842,
            47.66749
          ],
          [
            -122.10834,
            47.66751
          ],
          [
            -122.10827,
            47.66753
          ],
          [
            -122.1082,
            47.66755
          ],
          [
            -122.1081,
            47.66759
          ],
          [
            -122.108,
            47.66763
          ],
          [
            -122.10791,
            47.66767
          ],
          [
            -122.10783,
            47.66773
          ],
          [
            -122.10775,
            47.66778
          ],
          [
            -122.10768,
            47.66785
          ],
          [
            -122.10762,
            47.66791
          ],
          [
            -122.10756,
            47.66798
          ],
          [
            -122.10752,
            47.66805
          ],
          [
            -122.10748,
            47.66813
          ],
          [
            -122.10746,
            47.6682
          ],
          [
            -122.10744,
            47.66828
          ],
          [
            -122.10744,
            47.66836
          ],
          [
            -122.10744,
            47.66843
          ],
          [
            -122.10746,
            47.66851
          ],
          [
            -122.10748,
            47.66859
          ],
          [
            -122.10752,
            47.66866
          ],
          [
            -122.10756,
            47.66873
          ],
          [
            -122.10762,
            47.6688
          ],
          [
            -122.10768,
            47.66887
          ],
          [
            -122.10775,
            47.66893
          ],
          [
            -122.10782,
            47.66899
          ],
          [
            -122.10791,
            47.66904
          ],
          [
            -122.108,
            47.66909
          ],
          [
            -122.1081,
            47.66913
          ],
          [
            -122.1082,
            47.66917
          ],
          [
            -122.10828,
            47.66919
          ],
          [
            -122.10854,
            47.66925
          ],
          [
            -122.10892,
            47.66933
          ],
          [
            -122.11004,
            47.66956
          ],
          [
            -122.11068,
            47.66972
          ],
          [
            -122.11518,
            47.67082
          ],
          [
            -122.11614,
            47.67108
          ],
          [
            -122.11675,
            47.67126
          ],
          [
            -122.11771,
            47.67151
          ],
          [
            -122.11901,
            47.67183
          ]
        ]
      }
    }
  ]
}