{
  "type": "FeatureCollection",
  "features": [
    {
      "type": "Feature",
      "properties": {
        "route_id": "monorail",
        "gtfs_route_id": "SCM",
        "gtfs_shape_id": "FifthAveSB_shape",
        "gtfs_direction_id": 0,
        "source": "gis-data/monorail-gtfs",
        "trip_count": 469
      },
      "geometry": {
        "type": "LineString",
        "coordinates": [
          [
            -122.349955,
            47.621263
          ],
          [
            -122.348677,
            47.621283
          ],
          [
            -122.348599,
            47.621274
          ],
          [
            -122.348323,
            47.621219
          ],
          [
            -122.348118,
            47.621134
          ],
          [
            -122.347917,
            47.621002
          ],
          [
            -122.347803,
            47.620851
          ],
          [
            -122.347732,
            47.620687
          ],
          [
            -122.347708,
            47.620391
          ],
          [
            -122.34772,
            47.619902
          ],
          [
            -122.347693,
            47.619316
          ],
          [
            -122.347669,
            47.619178
          ],
          [
            -122.347513,
            47.618832
          ],
          [
            -122.347401,
            47.618684
          ],
          [
            -122.347205,
            47.618482
          ],
          [
            -122.347092,
            47.618398
          ],
          [
            -122.346893,
            47.618262
          ],
          [
            -122.344679,
            47.616949
          ],
          [
            -122.339804,
            47.614074
          ],
          [
            -122.338178,
            47.613116
          ],
          [
            -122.337708,
            47.612824
          ],
          [
            -122.337483,
            47.612633
          ],
          [
            -122.33696,
            47.612046
          ]
        ]
      }
    }
  ]
}