{
  "type": "FeatureCollection",
  "features": [
    {
      "type": "Feature",
      "properties": {
        "route_id": "pd-tal",
        "display": "Point Defiance to Tahlequah",
        "source": "wsdot_ferry_routes.geojson",
        "objectid": 2,
        "owner": "State"
      },
      "geometry": {
        "type": "LineString",
        "coordinates": [
          [
            -122.5141348996123,
            47.306308804526495
          ],
          [
            -122.5141176525598,
            47.306728943151164
          ],
          [
            -122.51409739554755,
            47.307148952142
          ],
          [
            -122.51407412857544,
            47.30756883150284
          ],
          [
            -122.51404785164331,
            47.307988581234525
          ],
          [
            -122.51401543611901,
            47.30844789168682
          ],
          [
            -122.51397881171081,
            47.30891009025687
          ],
          [
            -122.51393797356153,
            47.30937523829957
          ],
          [
            -122.51389291582971,
            47.30984340239843
          ],
          [
            -122.51384363257115,
            47.310314645226505
          ],
          [
            -122.51379011530024,
            47.31078904874868
          ],
          [
            -122.51373235515344,
            47.31126669159165
          ],
          [
            -122.51367034173451,
            47.311747659772514
          ],
          [
            -122.51360407571606,
            47.31223195609582
          ],
          [
            -122.51353353288539,
            47.3127197650159
          ],
          [
            -122.51345869831864,
            47.313211189792504
          ],
          [
            -122.5133795546516,
            47.313706344504425
          ],
          [
            -122.51329608520805,
            47.31420533454501
          ],
          [
            -122.51320826554766,
            47.31470830702051
          ],
          [
            -122.5131160712442,
            47.31521540189966
          ],
          [
            -122.51301947383632,
            47.3157267757904
          ],
          [
            -122.51291013217687,
            47.31628314653243
          ],
          [
            -122.51279664048084,
            47.316837322611676
          ],
          [
            -122.51267900660223,
            47.317389265684106
          ],
          [
            -122.51255723839748,
            47.317938938891714
          ],
          [
            -122.51243134421145,
            47.318486304651536
          ],
          [
            -122.51230133173169,
            47.31903132962295
          ],
          [
            -122.51216720909665,
            47.319573979693324
          ],
          [
            -122.51202898441552,
            47.32011422205781
          ],
          [
            -122.51188666889954,
            47.32065201347176
          ],
          [
            -122.51174026793858,
            47.321187334125504
          ],
          [
            -122.51158978983872,
            47.32172015365113
          ],
          [
            -122.51143524285735,
            47.322250442813775
          ],
          [
            -122.51127663567884,
            47.32277817186845
          ],
          [
            -122.51111397629273,
            47.323303314283436
          ],
          [
            -122.51094727308991,
            47.32382584297183
          ],
          [
            -122.51077653439165,
            47.32434573185346
          ],
          [
            -122.51068337845028,
            47.324622191496935
          ],
          [
            -122.5105864714764,
            47.32490361720205
          ],
          [
            -122.51048563569502,
            47.325190525577774
          ],
          [
            -122.51038063840232,
            47.32548357898939
          ],
          [
            -122.51015721140507,
            47.32609077666433
          ],
          [
            -122.50991268944837,
            47.32673473516904
          ],
          [
            -122.50966308440012,
            47.327375370132856
          ],
          [
            -122.50938058321732,
            47.32808587296964
          ],
          [
            -122.50908657202703,
            47.328814734131896
          ],
          [
            -122.5084978562568,
            47.330263582443095
          ],
          [
            -122.50814664343766,
            47.33112360485043
          ],
          [
            -122.5077906654016,
            47.331982746085565
          ]
        ]
      }
    }
  ]
}