{
  "type": "FeatureCollection",
  "features": [
    {
      "type": "Feature",
      "properties": {
        "route_id": "sea-br",
        "display": "Seattle to Bremerton",
        "source": "wsdot_ferry_routes.geojson",
        "objectid": 9,
        "owner": "State"
      },
      "geometry": {
        "type": "LineString",
        "coordinates": [
          [
            -122.62491475017735,
            47.561753700800416
          ],
          [
            -122.6247989145327,
            47.5616094007205
          ],
          [
            -122.62467917215551,
            47.56146681899896
          ],
          [
            -122.62455552304439,
            47.56132595563421
          ],
          [
            -122.6244279671979,
            47.56118681062457
          ],
          [
            -122.62434929754276,
            47.56110443685023
          ],
          [
            -122.62426524501666,
            47.561019583880324
          ],
          [
            -122.62417508342752,
            47.56093151598491
          ],
          [
            -122.6240774459747,
            47.56083889677086
          ],
          [
            -122.62386600781926,
            47.56064519761924
          ],
          [
            -122.62352832525823,
            47.56034457429174
          ],
          [
            -122.62325148400284,
            47.56009834375218
          ],
          [
            -122.62307935758206,
            47.55994877248699
          ],
          [
            -122.62291622389421,
            47.559812603801745
          ],
          [
            -122.62276384608809,
            47.55969197785804
          ],
          [
            -122.62259573616163,
            47.5595655547053
          ],
          [
            -122.62242357808519,
            47.55944147226681
          ],
          [
            -122.6223500683133,
            47.55938607746016
          ],
          [
            -122.62227476829915,
            47.55933191683755
          ],
          [
            -122.622135365401,
            47.559237543804414
          ],
          [
            -122.62199582624632,
            47.55915025133115
          ],
          [
            -122.62185615173082,
            47.55907004004604
          ],
          [
            -122.62171636050144,
            47.558996920783244
          ],
          [
            -122.62163496518345,
            47.55895763479183
          ],
          [
            -122.62155010901975,
            47.558919041851695
          ],
          [
            -122.62146176537934,
            47.558881129821025
          ],
          [
            -122.62136989681316,
            47.558843882606354
          ],
          [
            -122.62127448071398,
            47.55880729029272
          ],
          [
            -122.62117543312205,
            47.55877131997156
          ],
          [
            -122.6209661001258,
            47.55870112247607
          ],
          [
            -122.62078399237775,
            47.558646544313945
          ],
          [
            -122.62059059700626,
            47.558595198437956
          ],
          [
            -122.62038529014896,
            47.55854691721498
          ],
          [
            -122.62016691621827,
            47.55850142779027
          ],
          [
            -122.62003201657154,
            47.55847613829344
          ],
          [
            -122.61989615902965,
            47.55845298861349
          ],
          [
            -122.61975934358561,
            47.55843197874921
          ],
          [
            -122.61962157023244,
            47.558413108699554
          ],
          [
            -122.61939920146052,
            47.55837531335453
          ],
          [
            -122.61917587739133,
            47.55834092606289
          ],
          [
            -122.6190335647224,
            47.558321191201074
          ],
          [
            -122.61888511351577,
            47.55830266374219
          ],
          [
            -122.61872939457234,
            47.55828520137767
          ],
          [
            -122.61856441416,
            47.55826857978061
          ],
          [
            -122.61820823458805,
            47.55823771924089
          ],
          [
            -122.61771091193191,
            47.558200933381386
          ],
          [
            -122.61727474806602,
            47.55817142982958
          ],
          [
            -122.61691488186979,
            47.55815130953758
          ],
          [
            -122.61658737204016,
            47.55813812861818
          ],
          [
            -122.61628392386555,
            47.558131646126796
          ],
          [
            -122.61596341312917,
            47.558131405904355
          ],
          [
            -122.6156241676589,
            47.55813750568012
          ],
          [
            -122.61526111179349,
            47.55815001791651
          ],
          [
            -122.61486118182853,
            47.558169386091194
          ],
          [
            -122.61443617769909,
            47.55819412556228
          ],
          [
            -122.61410318683919,
            47.558218025514094
          ],
          [
            -122.6138033307346,
            47.558245324094635
          ],
          [
            -122.6135291148741,
            47.55827687625688
          ],
          [
            -122.61328893286662,
            47.55830933215488
          ],
          [
            -122.61307408843531,
            47.5583417539591
          ],
          [
            -122.61287564880934,
            47.55837549490673
          ],
          [
            -122.61269043351587,
            47.558411111728454
          ],
          [
            -122.61243764406595,
            47.5584660050159
          ],
          [
            -122.61219686673297,
            47.558524800401884
          ],
          [
            -122.61196787708948,
            47.55858755292621
          ],
          [
            -122.61185776449253,
            47.55862042359893
          ],
          [
            -122.61175055735353,
            47.55865429525543
          ],
          [
            -122.61156079590893,
            47.558718813783656
          ],
          [
            -122.6113727806743,
            47.55878843727792
          ],
          [
            -122.61118746335741,
            47.55886281347065
          ],
          [
            -122.61100583431734,
            47.55894154508043
          ],
          [
            -122.61091920552471,
            47.55898160685235
          ],
          [
            -122.61083055008504,
            47.559024732654485
          ],
          [
            -122.61064389857788,
            47.559121784413406
          ],
          [
            -122.61044293689949,
            47.55923378790183
          ],
          [
            -122.61016225904787,
            47.559397211539995
          ],
          [
            -122.61004731045077,
            47.559465774741
          ],
          [
            -122.6099295639395,
            47.55953829051067
          ],
          [
            -122.60968148969202,
            47.55969778133255
          ],
          [
            -122.60941305856234,
            47.55987848454503
          ],
          [
            -122.60904834108007,
            47.56013151825515
          ],
          [
            -122.60890143500416,
            47.560235597925214
          ],
          [
            -122.60875009209323,
            47.56034587595236
          ],
          [
            -122.60859268929015,
            47.560463531026386
          ],
          [
            -122.60842603246586,
            47.56059094878357
          ],
          [
            -122.6081668953812,
            47.5607935903723
          ],
          [
            -122.60753333685848,
            47.561298129735206
          ],
          [
            -122.60724079742577,
            47.5615274743099
          ],
          [
            -122.60675291721378,
            47.561906401843935
          ],
          [
            -122.60625800737243,
            47.56229396369511
          ],
          [
            -122.60575514916589,
            47.56269087914129
          ],
          [
            -122.60524316759943,
            47.56309807548934
          ],
          [
            -122.60472125709309,
            47.563516188658646
          ],
          [
            -122.6041871377699,
            47.56394704049293
          ],
          [
            -122.60363874836075,
            47.56439229315519
          ],
          [
            -122.60307310336297,
            47.56485437027042
          ],
          [
            -122.60199981963746,
            47.565738014268945
          ],
          [
            -122.60081708766364,
            47.566720188688684
          ],
          [
            -122.59961739754931,
            47.5677227147052
          ],
          [
            -122.59637300697499,
            47.57044195721099
          ],
          [
            -122.59538841051716,
            47.57126287002616
          ],
          [
            -122.59450151928306,
            47.57199815143752
          ],
          [
            -122.59348161606475,
            47.572837271233624
          ],
          [
            -122.59252350103742,
            47.57361785132435
          ],
          [
            -122.59160840341798,
            47.57435517906088
          ],
          [
            -122.59072675503178,
            47.57505695291229
          ],
          [
            -122.59018709056582,
            47.57548195781143
          ],
          [
            -122.58965634207232,
            47.575896339209415
          ],
          [
            -122.58913335142911,
            47.57630100115893
          ],
          [
            -122.58861720511959,
            47.57669665029646
          ],
          [
            -122.58810690981593,
            47.57708404609814
          ],
          [
            -122.58760196043855,
            47.57746356999993
          ],
          [
            -122.58710173741419,
            47.57783568760651
          ],
          [
            -122.58660572224639,
            47.57820078454268
          ],
          [
            -122.58611269931171,
            47.578559746705366
          ],
          [
            -122.58562300247817,
            47.57891232205492
          ],
          [
            -122.58513624638734,
            47.57925878800468
          ],
          [
            -122.58465209671473,
            47.57959938247583
          ],
          [
            -122.58417019668457,
            47.57993435589586
          ],
          [
            -122.58369031200108,
            47.58026387055837
          ],
          [
            -122.5832121806221,
            47.58058810637168
          ],
          [
            -122.58273556955717,
            47.58090722130644
          ],
          [
            -122.58224723065992,
            47.58123088543231
          ],
          [
            -122.58173869362938,
            47.581565699270364
          ],
          [
            -122.58064358302384,
            47.58228023884619
          ],
          [
            -122.57973714348358,
            47.58287199281094
          ],
          [
            -122.57935107256966,
            47.58312179494587
          ],
          [
            -122.578949396202,
            47.58337678979699
          ],
          [
            -122.57858417938563,
            47.58360240060884
          ],
          [
            -122.57797908220535,
            47.58397011025635
          ],
          [
            -122.57759330350585,
            47.58419900410025
          ],
          [
            -122.57740836772935,
            47.58430557885971
          ],
          [
            -122.57723251215353,
            47.58440447804807
          ],
          [
            -122.57706303720701,
            47.584497218613635
          ],
          [
            -122.57689846054872,
            47.584584609319535
          ],
          [
            -122.5766669353157,
            47.5847036501987
          ],
          [
            -122.57642905703109,
            47.58482212614961
          ],
          [
            -122.57618469588846,
            47.5849401018708
          ],
          [
            -122.57593369160114,
            47.58505765478638
          ],
          [
            -122.57567591489213,
            47.58517484650885
          ],
          [
            -122.57541109401964,
            47.58529180160682
          ],
          [
            -122.57513897591237,
            47.58540863194516
          ],
          [
            -122.57485923302956,
            47.58552547822562
          ],
          [
            -122.57459717970738,
            47.58563057767202
          ],
          [
            -122.5743009247553,
            47.5857438366252
          ],
          [
            -122.57401906759112,
            47.58584803805986
          ],
          [
            -122.57339180236795,
            47.586076292806396
          ],
          [
            -122.57312528449481,
            47.58617523320435
          ],
          [
            -122.57173123296815,
            47.586708651393636
          ],
          [
            -122.5713884720434,
            47.586836952471856
          ],
          [
            -122.57107946564354,
            47.58694952272577
          ],
          [
            -122.57075868642116,
            47.5870619055677
          ],
          [
            -122.5704043386432,
            47.5871809550405
          ],
          [
            -122.56998880581654,
            47.587315853204544
          ],
          [
            -122.56910137573311,
            47.58759764254356
          ],
          [
            -122.56871622362297,
            47.58772175316501
          ],
          [
            -122.56831187721309,
            47.58785618978725
          ],
          [
            -122.56795281278335,
            47.58798099372307
          ],
          [
            -122.56722842555493,
            47.5882427263703
          ],
          [
            -122.56689291029569,
            47.588366799705895
          ],
          [
            -122.56657119247707,
            47.58848781228253
          ],
          [
            -122.56626046407537,
            47.58860682876272
          ],
          [
            -122.56596019755526,
            47.58872406015813
          ],
          [
            -122.5656692474278,
            47.588839953899
          ],
          [
            -122.56538679045502,
            47.58895483819336
          ],
          [
            -122.56513176302647,
            47.58906092329434
          ],
          [
            -122.56486832780375,
            47.5891729562501
          ],
          [
            -122.56459441511865,
            47.58929181550754
          ],
          [
            -122.5643063864031,
            47.58941907900986
          ],
          [
            -122.5636918549033,
            47.5896967079545
          ],
          [
            -122.56282711171733,
            47.59009513773487
          ],
          [
            -122.56247623960661,
            47.59025953081547
          ],
          [
            -122.56209399543326,
            47.59044289886377
          ],
          [
            -122.56166590245311,
            47.59065205948443
          ],
          [
            -122.5603912861015,
            47.59128050221686
          ],
          [
            -122.55998329942796,
            47.59147757430749
          ],
          [
            -122.55961482940823,
            47.59165157572063
          ],
          [
            -122.55889147963444,
            47.591992794484725
          ],
          [
            -122.55859231302594,
            47.59213157565721
          ],
          [
            -122.5582769884292,
            47.59227259580091
          ],
          [
            -122.55798965949826,
            47.59239438935773
          ],
          [
            -122.55780725124605,
            47.5924682036636
          ],
          [
            -122.55761838700468,
            47.592542444395654
          ],
          [
            -122.55742239770349,
            47.59261737494053
          ],
          [
            -122.55721830705882,
            47.592693368806195
          ],
          [
            -122.5567823049772,
            47.59284988317221
          ],
          [
            -122.55628952969285,
            47.59301948382424
          ],
          [
            -122.55571336863431,
            47.593219355974064
          ],
          [
            -122.55544983363185,
            47.593306379244126
          ],
          [
            -122.5553113153843,
            47.593348852160275
          ],
          [
            -122.55518054693606,
            47.593386220207805
          ],
          [
            -122.55505508947608,
            47.59341917852807
          ],
          [
            -122.55493368132684,
            47.593448054964696
          ],
          [
            -122.55480241600132,
            47.59347623853624
          ],
          [
            -122.55466612544652,
            47.593502889191775
          ],
          [
            -122.5545244383093,
            47.593528079903216
          ],
          [
            -122.55437680835104,
            47.59355190802663
          ],
          [
            -122.55422308703935,
            47.593574409659055
          ],
          [
            -122.55406172955831,
            47.5935958222551
          ],
          [
            -122.5538913756268,
            47.593616328515694
          ],
          [
            -122.55370931378991,
            47.593636255889606
          ],
          [
            -122.55355911160513,
            47.5936509049301
          ],
          [
            -122.55340495046747,
            47.59366385685454
          ],
          [
            -122.55324655410648,
            47.59367513501435
          ],
          [
            -122.55308354864776,
            47.593684766133165
          ],
          [
            -122.55291571984465,
            47.59369276684846
          ],
          [
            -122.55274223566109,
            47.59369918061154
          ],
          [
            -122.55237486714915,
            47.59370736430065
          ],
          [
            -122.55197009808799,
            47.59371130649032
          ],
          [
            -122.55167790748828,
            47.59370866927844
          ],
          [
            -122.5515427117842,
            47.59370464280434
          ],
          [
            -122.55141516669428,
            47.59369870805772
          ],
          [
            -122.55129369837233,
            47.59369079093275
          ],
          [
            -122.55117741878762,
            47.59368083193993
          ],
          [
            -122.55106569478001,
            47.593668848227026
          ],
          [
            -122.55094989162004,
            47.59365406899766
          ],
          [
            -122.55082912010172,
            47.59363638243731
          ],
          [
            -122.5507017968541,
            47.59361555756702
          ],
          [
            -122.55042981571175,
            47.593565269771375
          ],
          [
            -122.55004390195208,
            47.59348653814209
          ],
          [
            -122.54974879796032,
            47.59342253520041
          ],
          [
            -122.54945452804354,
            47.59335293716234
          ],
          [
            -122.54916185611916,
            47.59327792463827
          ],
          [
            -122.54887157429927,
            47.59319770057511
          ],
          [
            -122.54866654485241,
            47.59313809205245
          ],
          [
            -122.54848252366716,
            47.593082730901834
          ],
          [
            -122.54831210536008,
            47.5930293865101
          ],
          [
            -122.54815256762612,
            47.5929771985255
          ],
          [
            -122.54800066671766,
            47.5929250761735
          ],
          [
            -122.5478565457999,
            47.59287303622879
          ],
          [
            -122.5477192823444,
            47.59282074509494
          ],
          [
            -122.54758828815044,
            47.59276797791653
          ],
          [
            -122.54743179378218,
            47.59270105702042
          ],
          [
            -122.54727421817861,
            47.59262959138027
          ],
          [
            -122.5471154308844,
            47.59255352196602
          ],
          [
            -122.54695525664562,
            47.59247276492224
          ],
          [
            -122.54679359222992,
            47.59238727203414
          ],
          [
            -122.54663005961407,
            47.5922968471209
          ],
          [
            -122.54646432785343,
            47.59220130768065
          ],
          [
            -122.54629589665117,
            47.592100365636455
          ],
          [
            -122.54610952358661,
            47.59198268596755
          ],
          [
            -122.54592289087057,
            47.591857017025106
          ],
          [
            -122.54573533389176,
            47.59172291298127
          ],
          [
            -122.54554586771746,
            47.59157967072507
          ],
          [
            -122.5453544401757,
            47.59142732214899
          ],
          [
            -122.54515796722103,
            47.59126348107772
          ],
          [
            -122.54495393171479,
            47.591086065764024
          ],
          [
            -122.5447364196616,
            47.590889940705736
          ],
          [
            -122.54459826620788,
            47.59076086726448
          ],
          [
            -122.54446071836355,
            47.590627301149866
          ],
          [
            -122.54432360906627,
            47.590489080342984
          ],
          [
            -122.54418672522525,
            47.5903459901877
          ],
          [
            -122.54404992492228,
            47.590197888045495
          ],
          [
            -122.54391279580963,
            47.59004433312258
          ],
          [
            -122.54377497649611,
            47.58988492144708
          ],
          [
            -122.5436359510239,
            47.589719056716575
          ],
          [
            -122.54350477451646,
            47.589556237909065
          ],
          [
            -122.5433739361948,
            47.589385878852035
          ],
          [
            -122.54324268980722,
            47.58920701124033
          ],
          [
            -122.54310986582415,
            47.58901804326614
          ],
          [
            -122.54297613268567,
            47.58882011579028
          ],
          [
            -122.54283677965914,
            47.58860643649385
          ],
          [
            -122.54268849855251,
            47.58837200751355
          ],
          [
            -122.54251822824318,
            47.58809619485461
          ],
          [
            -122.54237643522971,
            47.58785787939245
          ],
          [
            -122.54223545653994,
            47.587607760471656
          ],
          [
            -122.54209404945907,
            47.58734364540742
          ],
          [
            -122.54195002549088,
            47.58706145313248
          ],
          [
            -122.54181139105395,
            47.58677826045545
          ],
          [
            -122.54166220806951,
            47.58646279195351
          ],
          [
            -122.54151139740713,
            47.58613557735226
          ],
          [
            -122.54122261587113,
            47.58550048781259
          ],
          [
            -122.54113083080503,
            47.585296955722505
          ],
          [
            -122.54103925321023,
            47.585089004048754
          ],
          [
            -122.54094770227476,
            47.584876222521366
          ],
          [
            -122.54085594867182,
            47.584658078384145
          ],
          [
            -122.5407638399259,
            47.58443421787387
          ],
          [
            -122.54067093185576,
            47.584203570009855
          ],
          [
            -122.54048096965076,
            47.58371754750792
          ],
          [
            -122.54030471938071,
            47.583250873264404
          ],
          [
            -122.54011299360054,
            47.58272909742488
          ],
          [
            -122.53994781191797,
            47.58227102749691
          ],
          [
            -122.53944946118133,
            47.58087790482955
          ],
          [
            -122.5393640891347,
            47.58063728640534
          ],
          [
            -122.53927232574017,
            47.58036997031567
          ],
          [
            -122.53894557802717,
            47.579386323341
          ],
          [
            -122.53880768901078,
            47.57898188409334
          ],
          [
            -122.53873075165157,
            47.57876460181325
          ],
          [
            -122.5386565198456,
            47.57856192373582
          ],
          [
            -122.53858355784617,
            47.57836993436109
          ],
          [
            -122.5385111074888,
            47.57818664787542
          ],
          [
            -122.53836311944357,
            47.577821520068404
          ],
          [
            -122.53824827727931,
            47.577543228509896
          ],
          [
            -122.5381419659797,
            47.57729213457928
          ],
          [
            -122.53804151634807,
            47.57706217630817
          ],
          [
            -122.53794102802966,
            47.57684021263518
          ],
          [
            -122.53784217225562,
            47.57663032697669
          ],
          [
            -122.53774378870992,
            47.57643005889778
          ],
          [
            -122.53764517415836,
            47.5762379822222
          ],
          [
            -122.5374874517528,
            47.57594002667561
          ],
          [
            -122.53735793319598,
            47.57570147973803
          ],
          [
            -122.53723694548823,
            47.57548612576558
          ],
          [
            -122.53712128375886,
            47.57528843620788
          ],
          [
            -122.537005313401,
            47.575099096371076
          ],
          [
            -122.53689031390746,
            47.574920529572594
          ],
          [
            -122.53677507062679,
            47.57475085270305
          ],
          [
            -122.53665882993361,
            47.57458896112059
          ],
          [
            -122.5365220051389,
            47.574406788223506
          ],
          [
            -122.53638843609973,
            47.574235121802694
          ],
          [
            -122.53625669464721,
            47.57407212847992
          ],
          [
            -122.53612595051429,
            47.57391678482306
          ],
          [
            -122.53599522732621,
            47.57376795282383
          ],
          [
            -122.53586434006537,
            47.5736254444487
          ],
          [
            -122.5357328801327,
            47.57348881530982
          ],
          [
            -122.53560054757006,
            47.573357754328136
          ],
          [
            -122.53542072060701,
            47.57318795973106
          ],
          [
            -122.53523852124022,
            47.57302378102422
          ],
          [
            -122.5350541245738,
            47.57286537587382
          ],
          [
            -122.5348676787709,
            47.57271287141779
          ],
          [
            -122.53467934781571,
            47.572566400226506
          ],
          [
            -122.5344892272604,
            47.57242603505351
          ],
          [
            -122.53429743023095,
            47.57229185935908
          ],
          [
            -122.53410405517894,
            47.57216394194789
          ],
          [
            -122.53397455949252,
            47.5720833419625
          ],
          [
            -122.53383535548264,
            47.57200178161539
          ],
          [
            -122.5336849571751,
            47.571918383930694
          ],
          [
            -122.5335203149513,
            47.57183145493519
          ],
          [
            -122.53337609619662,
            47.57175814733537
          ],
          [
            -122.5332133138947,
            47.5716776819528
          ],
          [
            -122.53253383763393,
            47.57134941740587
          ],
          [
            -122.53226518435794,
            47.571214121231456
          ],
          [
            -122.5319790884405,
            47.57106445014712
          ],
          [
            -122.53130759636177,
            47.57070821846508
          ],
          [
            -122.53100278426044,
            47.570548311267956
          ],
          [
            -122.53067686730913,
            47.570381400055375
          ],
          [
            -122.53038131008367,
            47.570235300754746
          ],
          [
            -122.53012774289189,
            47.570114684506464
          ],
          [
            -122.52984177302781,
            47.56998283905398
          ],
          [
            -122.52895532144274,
            47.56958569526378
          ],
          [
            -122.52868116280527,
            47.569461535949344
          ],
          [
            -122.52825771481764,
            47.56926545234713
          ],
          [
            -122.52734625181641,
            47.568836263151084
          ],
          [
            -122.52694512514407,
            47.568649536545934
          ],
          [
            -122.5265176698048,
            47.56845545069297
          ],
          [
            -122.52613047119105,
            47.56828597369407
          ],
          [
            -122.52572182731448,
            47.568112647755676
          ],
          [
            -122.5253195458298,
            47.56794556490263
          ],
          [
            -122.52492290429669,
            47.56778442520522
          ],
          [
            -122.52453133973495,
            47.5676290001117
          ],
          [
            -122.52414423680217,
            47.56747904701764
          ],
          [
            -122.52376129745882,
            47.567334452155976
          ],
          [
            -122.52338214872644,
            47.56719507475232
          ],
          [
            -122.52300648255165,
            47.56706080163661
          ],
          [
            -122.5226704293251,
            47.56694405508458
          ],
          [
            -122.52232470181089,
            47.5668271816162
          ],
          [
            -122.52196847319605,
            47.56670990143185
          ],
          [
            -122.52160061846251,
            47.566591843931995
          ],
          [
            -122.52122052546812,
            47.56647280406845
          ],
          [
            -122.5208256238574,
            47.56635196870835
          ],
          [
            -122.5204135972357,
            47.5662286278444
          ],
          [
            -122.51998063253575,
            47.56610163931274
          ],
          [
            -122.51914004517063,
            47.56585713567059
          ],
          [
            -122.51887175240279,
            47.56578105172811
          ],
          [
            -122.5186296219415,
            47.56571422919612
          ],
          [
            -122.51838409759596,
            47.565648788772236
          ],
          [
            -122.518152046986,
            47.56558953801442
          ],
          [
            -122.51792976457243,
            47.56553553217846
          ],
          [
            -122.51771525102176,
            47.56548628825213
          ],
          [
            -122.5172953758465,
            47.56539380402009
          ],
          [
            -122.51697062433357,
            47.5653250176058
          ],
          [
            -122.51667574155343,
            47.56526611301108
          ],
          [
            -122.51640373938662,
            47.56521581951995
          ],
          [
            -122.51613979938527,
            47.565171594450426
          ],
          [
            -122.5158884858573,
            47.56513441960787
          ],
          [
            -122.51564703571756,
            47.56510388803356
          ],
          [
            -122.51541384800849,
            47.565079800432436
          ],
          [
            -122.51520574930377,
            47.56506389360181
          ],
          [
            -122.514987120305,
            47.56505317298474
          ],
          [
            -122.51475562165564,
            47.56504751624662
          ],
          [
            -122.51450656229076,
            47.56504680516876
          ],
          [
            -122.51429126383455,
            47.56504974414507
          ],
          [
            -122.51405057507115,
            47.56505591991324
          ],
          [
            -122.5132906259834,
            47.56508371665262
          ],
          [
            -122.51303521656538,
            47.56509181135942
          ],
          [
            -122.5128076997846,
            47.56509677890399
          ],
          [
            -122.51260097816338,
            47.56509866750232
          ],
          [
            -122.5123223328626,
            47.5650977606348
          ],
          [
            -122.51201468267108,
            47.565093968557036
          ],
          [
            -122.51074072124476,
            47.56506644940825
          ],
          [
            -122.5104463531597,
            47.56506182352157
          ],
          [
            -122.51018271212638,
            47.56505962401135
          ],
          [
            -122.50987815555432,
            47.56506015638064
          ],
          [
            -122.50959460098035,
            47.565064376988175
          ],
          [
            -122.50932634606414,
            47.56507237336184
          ],
          [
            -122.50907053479021,
            47.565084236237674
          ],
          [
            -122.50873048797374,
            47.56510627499082
          ],
          [
            -122.50838466384421,
            47.565135162746095
          ],
          [
            -122.50803243781479,
            47.565170951306385
          ],
          [
            -122.5076730031475,
            47.565213722359
          ],
          [
            -122.50730581944433,
            47.56526353029628
          ],
          [
            -122.50692928552301,
            47.56532058278609
          ],
          [
            -122.50654195411867,
            47.565385097907566
          ],
          [
            -122.50614169985246,
            47.5654574288656
          ],
          [
            -122.50576495845183,
            47.565530254679466
          ],
          [
            -122.50537227911389,
            47.56561051407061
          ],
          [
            -122.50495972584719,
            47.56569900642325
          ],
          [
            -122.50451955320906,
            47.56579739067426
          ],
          [
            -122.50413016184984,
            47.565887188461126
          ],
          [
            -122.50369746871417,
            47.56598927476695
          ],
          [
            -122.5022790603338,
            47.56633095531073
          ],
          [
            -122.5017620790517,
            47.566454052873205
          ],
          [
            -122.50138945490363,
            47.56654362894624
          ],
          [
            -122.50101083189574,
            47.56663822304291
          ],
          [
            -122.50062539087162,
            47.566738039557066
          ],
          [
            -122.5002320608725,
            47.56684335563487
          ],
          [
            -122.49983016700257,
            47.56695434467726
          ],
          [
            -122.49941749362287,
            47.56707161155467
          ],
          [
            -122.49899204883157,
            47.56719572134025
          ],
          [
            -122.49855079567607,
            47.567327559360244
          ],
          [
            -122.49785371181845,
            47.5675414321118
          ],
          [
            -122.49708691528463,
            47.56778305606281
          ],
          [
            -122.49628295317228,
            47.5680413933392
          ],
          [
            -122.49469212329822,
            47.56855830856922
          ],
          [
            -122.49402478261052,
            47.56877378671302
          ],
          [
            -122.49332432862639,
            47.56899687002941
          ],
          [
            -122.49269418042603,
            47.56919357636576
          ],
          [
            -122.48859455624387,
            47.57045360152248
          ],
          [
            -122.48695910506164,
            47.57095860277163
          ],
          [
            -122.4852371666451,
            47.571495732388684
          ],
          [
            -122.4844491612858,
            47.57174416332895
          ],
          [
            -122.48369621865906,
            47.571983443402964
          ],
          [
            -122.48289456735988,
            47.572240532407164
          ],
          [
            -122.48212251727234,
            47.57249068084988
          ],
          [
            -122.481375606201,
            47.57273533490172
          ],
          [
            -122.48065080605365,
            47.572975487025694
          ],
          [
            -122.47994479055716,
            47.57321224405611
          ],
          [
            -122.47925643452494,
            47.57344598825131
          ],
          [
            -122.47858406727087,
            47.57367728706568
          ],
          [
            -122.47792639847883,
            47.57390658456312
          ],
          [
            -122.47727154020531,
            47.574138371473296
          ],
          [
            -122.47660553145079,
            47.57437796519572
          ],
          [
            -122.4759269210303,
            47.574625887502485
          ],
          [
            -122.47523380884067,
            47.57488283235984
          ],
          [
            -122.47452500129717,
            47.57514923428375
          ],
          [
            -122.47379655422448,
            47.57542656804164
          ],
          [
            -122.47304491883337,
            47.57571618368533
          ],
          [
            -122.47226467071368,
            47.57602017065595
          ],
          [
            -122.47094976122123,
            47.57653908690247
          ],
          [
            -122.46948758638781,
            47.577123813689
          ],
          [
            -122.46810390589505,
            47.57768219981694
          ],
          [
            -122.4648938891308,
            47.5789830480348
          ],
          [
            -122.46334730606375,
            47.57960565223486
          ],
          [
            -122.46196346094814,
            47.58015672231281
          ],
          [
            -122.46069929514711,
            47.58065311673921
          ],
          [
            -122.4585966853031,
            47.58147420874523
          ],
          [
            -122.45626012262758,
            47.58239111068835
          ],
          [
            -122.45399318881246,
            47.583283728426615
          ],
          [
            -122.44832711337659,
            47.585518303787424
          ],
          [
            -122.44528439784571,
            47.58671432511474
          ],
          [
            -122.44370033260807,
            47.58733433169255
          ],
          [
            -122.4422144157956,
            47.587913701983304
          ],
          [
            -122.44079997854163,
            47.58846283299784
          ],
          [
            -122.43944313479994,
            47.58898711295402
          ],
          [
            -122.43777906372185,
            47.58962633339776
          ],
          [
            -122.43617634024031,
            47.59023758916031
          ],
          [
            -122.43462376504215,
            47.59082515063393
          ],
          [
            -122.43311397223744,
            47.59139180403359
          ],
          [
            -122.43163879181485,
            47.59194060565921
          ],
          [
            -122.43019571026876,
            47.592472480097854
          ],
          [
            -122.42878076908124,
            47.592988886049675
          ],
          [
            -122.42739094086184,
            47.59349092803101
          ],
          [
            -122.42577697665936,
            47.59406883882986
          ],
          [
            -122.42417902989395,
            47.5946373366525
          ],
          [
            -122.42259615408507,
            47.59519675820038
          ],
          [
            -122.42102752086294,
            47.59574739620734
          ],
          [
            -122.41947225398486,
            47.59628955788996
          ],
          [
            -122.41792976032895,
            47.5968234496317
          ],
          [
            -122.41639938632069,
            47.59734929763276
          ],
          [
            -122.4148805485824,
            47.59786730232751
          ],
          [
            -122.41394794716624,
            47.59818681752318
          ],
          [
            -122.4116406734299,
            47.59898486212454
          ],
          [
            -122.41099444901171,
            47.59920551296429
          ],
          [
            -122.4104108828629,
            47.599402073145754
          ],
          [
            -122.40972290281687,
            47.59962948382984
          ],
          [
            -122.40907752208851,
            47.599837584276756
          ],
          [
            -122.40846203637999,
            47.600030467327834
          ],
          [
            -122.40786999279996,
            47.600210147694405
          ],
          [
            -122.40748668113295,
            47.60032340178814
          ],
          [
            -122.40709545113111,
            47.60043688577721
          ],
          [
            -122.4066956969806,
            47.60055077547911
          ],
          [
            -122.40628665461955,
            47.60066528864411
          ],
          [
            -122.40586776271361,
            47.60078058464318
          ],
          [
            -122.40543761140076,
            47.60089705366437
          ],
          [
            -122.40453785452085,
            47.601135040922806
          ],
          [
            -122.40360771591483,
            47.60137425306659
          ],
          [
            -122.4025882233825,
            47.60163019873678
          ],
          [
            -122.4014580963049,
            47.6019084644964
          ],
          [
            -122.39992009167489,
            47.60228224008739
          ],
          [
            -122.39960015580496,
            47.602361189229505
          ],
          [
            -122.39924443895418,
            47.60245173079708
          ],
          [
            -122.39807746684524,
            47.60275717088291
          ],
          [
            -122.39764978036604,
            47.602867410513774
          ],
          [
            -122.39723176412144,
            47.60297166531399
          ],
          [
            -122.39685271050668,
            47.60306190153155
          ],
          [
            -122.39661779129116,
            47.60311525870808
          ],
          [
            -122.39639133513133,
            47.603164541153355
          ],
          [
            -122.39617174098417,
            47.60321009686399
          ],
          [
            -122.39595795785965,
            47.60325214319734
          ],
          [
            -122.39574881752172,
            47.60329090494346
          ],
          [
            -122.39554396327506,
            47.60332644302507
          ],
          [
            -122.39534283016002,
            47.60335885531127
          ],
          [
            -122.39514498611899,
            47.60338821124111
          ],
          [
            -122.39495846099148,
            47.60341367853106
          ],
          [
            -122.39476765995363,
            47.603437776727105
          ],
          [
            -122.39457223661029,
            47.60346054968772
          ],
          [
            -122.39437174345113,
            47.60348204964471
          ],
          [
            -122.39395374862852,
            47.603521426948376
          ],
          [
            -122.39350712829113,
            47.60355652893573
          ],
          [
            -122.39306199353787,
            47.60358574921749
          ],
          [
            -122.3925658617201,
            47.60361320467508
          ],
          [
            -122.39206283248217,
            47.603637347631015
          ],
          [
            -122.3910166870597,
            47.60368373698257
          ],
          [
            -122.39035432238825,
            47.603712285215984
          ],
          [
            -122.38973762743598,
            47.603735082916884
          ],
          [
            -122.38915350882037,
            47.60375261123124
          ],
          [
            -122.38859563910783,
            47.60376505372639
          ],
          [
            -122.38805674768022,
            47.60377254213595
          ],
          [
            -122.38753620246635,
            47.60377505279659
          ],
          [
            -122.38703144254242,
            47.60377259744835
          ],
          [
            -122.38654070876714,
            47.60376516662426
          ],
          [
            -122.38605332718733,
            47.60375167874823
          ],
          [
            -122.38554465261075,
            47.60373074088345
          ],
          [
            -122.38500958189302,
            47.6037021507454
          ],
          [
            -122.38443819019905,
            47.60366538181196
          ],
          [
            -122.38391432880832,
            47.6036271087378
          ],
          [
            -122.38332995292036,
            47.603580546467924
          ],
          [
            -122.38152700947941,
            47.6034260262111
          ],
          [
            -122.3809569168908,
            47.60337851230961
          ],
          [
            -122.38025317164768,
            47.60331896015012
          ],
          [
            -122.37951942981448,
            47.60325211668811
          ],
          [
            -122.3787483922469,
            47.60317732223625
          ],
          [
            -122.37792596607078,
            47.60309321229854
          ],
          [
            -122.37718401897543,
            47.60301422677134
          ],
          [
            -122.37636006774574,
            47.602923894071246
          ],
          [
            -122.37347764946696,
            47.602599208667215
          ],
          [
            -122.37233689892386,
            47.60247308653109
          ],
          [
            -122.37116698818497,
            47.60234897976957
          ],
          [
            -122.37062906157246,
            47.60229440545665
          ],
          [
            -122.37011355724763,
            47.602243902531676
          ],
          [
            -122.36614968404552,
            47.60185593142414
          ],
          [
            -122.36510921564162,
            47.60175746083374
          ],
          [
            -122.36417679681635,
            47.601672760554344
          ],
          [
            -122.36318041747653,
            47.601587174140064
          ],
          [
            -122.36224621262946,
            47.601512647020506
          ],
          [
            -122.3613572544925,
            47.60144783236892
          ],
          [
            -122.36050476095934,
            47.60139209720037
          ],
          [
            -122.3594228002466,
            47.601327568962645
          ],
          [
            -122.3584430260434,
            47.60127325535579
          ],
          [
            -122.35752725153546,
            47.60122704539835
          ],
          [
            -122.3566606787079,
            47.60118820904658
          ],
          [
            -122.35582561067656,
            47.60115601526343
          ],
          [
            -122.35502229349797,
            47.6011305403344
          ],
          [
            -122.35424538611441,
            47.60111161591185
          ],
          [
            -122.35349137655083,
            47.601099158057735
          ],
          [
            -122.35181983104714,
            47.60107859770529
          ],
          [
            -122.35126408393532,
            47.60107370335294
          ],
          [
            -122.3507628888607,
            47.601071075093
          ],
          [
            -122.35026227772781,
            47.601070656936066
          ],
          [
            -122.34979090559455,
            47.60107272792044
          ],
          [
            -122.34934158962912,
            47.601077320880606
          ],
          [
            -122.34891043632128,
            47.60108447808338
          ],
          [
            -122.34847112713526,
            47.60109488555563
          ],
          [
            -122.34804621126247,
            47.60110827257214
          ],
          [
            -122.34763370916512,
            47.60112470188966
          ],
          [
            -122.34723223217253,
            47.60114422938749
          ],
          [
            -122.3468402585339,
            47.60116693384607
          ],
          [
            -122.34645722460363,
            47.601192852875506
          ],
          [
            -122.34608233336195,
            47.601222040557644
          ],
          [
            -122.3457149603034,
            47.601254545707704
          ],
          [
            -122.34517790533648,
            47.601307802799795
          ],
          [
            -122.34464166207505,
            47.60136659856458
          ],
          [
            -122.34410623044691,
            47.60143093300998
          ],
          [
            -122.34357161037974,
            47.60150080614469
          ],
          [
            -122.34323235591529,
            47.60153591957443
          ],
          [
            -122.34289384158106,
            47.60157352127779
          ],
          [
            -122.34255606735627,
            47.60161361125708
          ],
          [
            -122.34221903321867,
            47.60165618951494
          ],
          [
            -122.34192158625301,
            47.60169591617419
          ],
          [
            -122.34162471800283,
            47.60173758895449
          ],
          [
            -122.34132842845041,
            47.60178120785834
          ],
          [
            -122.34103271758704,
            47.601826772886994
          ],
          [
            -122.34073758539449,
            47.60187428404326
          ],
          [
            -122.34044303186224,
            47.601923741328875
          ],
          [
            -122.34014905697555,
            47.60197514474624
          ],
          [
            -122.33985566071915,
            47.6020284942981
          ]
        ]
      }
    }
  ]
}