{
  "type": "FeatureCollection",
  "features": [
    {
      "type": "Feature",
      "properties": {
        "route_id": "sea-bi",
        "display": "Seattle to Bainbridge Island",
        "source": "wsdot_ferry_routes.geojson",
        "objectid": 12,
        "owner": "State"
      },
      "geometry": {
        "type": "LineString",
        "coordinates": [
          [
            -122.33975601475525,
            47.6029034178556
          ],
          [
            -122.34125742672407,
            47.60311502935419
          ],
          [
            -122.34276015174203,
            47.60332180749425
          ],
          [
            -122.34426418963494,
            47.6035237522518
          ],
          [
            -122.34576954023345,
            47.60372086360413
          ],
          [
            -122.34718605237832,
            47.60390027759525
          ],
          [
            -122.34866641866714,
            47.60408058684253
          ],
          [
            -122.35022522650127,
            47.60426357590191
          ],
          [
            -122.35189061204927,
            47.60445255152702
          ],
          [
            -122.35345651234533,
            47.60462529322541
          ],
          [
            -122.35520595969899,
            47.60481403652684
          ],
          [
            -122.36180993485856,
            47.605512834281654
          ],
          [
            -122.36441726825262,
            47.60579076096418
          ],
          [
            -122.36644753405372,
            47.606005567268596
          ],
          [
            -122.36828476309016,
            47.606197880289784
          ],
          [
            -122.36997599833589,
            47.606372557583256
          ],
          [
            -122.37161236528914,
            47.60653889967771
          ],
          [
            -122.3731679306288,
            47.60669414774138
          ],
          [
            -122.37466052551603,
            47.60684008030043
          ],
          [
            -122.37610064236556,
            47.6069777213447
          ],
          [
            -122.37684997022026,
            47.607050612109724
          ],
          [
            -122.3776844858411,
            47.60713598479464
          ],
          [
            -122.37848290607907,
            47.6072204569134
          ],
          [
            -122.380404406763,
            47.60742685916604
          ],
          [
            -122.38138731376708,
            47.607529536789656
          ],
          [
            -122.38233655295629,
            47.60762376523904
          ],
          [
            -122.383195874427,
            47.60770301971686
          ],
          [
            -122.38373190638907,
            47.60774879720161
          ],
          [
            -122.38424749372808,
            47.607789736143374
          ],
          [
            -122.38474630301886,
            47.607826127054686
          ],
          [
            -122.38523073445214,
            47.60785814406198
          ],
          [
            -122.3857034474854,
            47.60788595569256
          ],
          [
            -122.3861652496065,
            47.60790960188653
          ],
          [
            -122.3866174211158,
            47.60792914799599
          ],
          [
            -122.38706093840973,
            47.60794463595453
          ],
          [
            -122.38765700414211,
            47.607961056841795
          ],
          [
            -122.38913340738914,
            47.60800524792624
          ],
          [
            -122.39060992921927,
            47.60804706948002
          ],
          [
            -122.39208656954082,
            47.60808652150052
          ],
          [
            -122.39356332826905,
            47.60812360398548
          ],
          [
            -122.39650742951106,
            47.60819600067775
          ],
          [
            -122.3979841976904,
            47.60823092606631
          ],
          [
            -122.39942358428897,
            47.608262308506426
          ],
          [
            -122.40071983024018,
            47.60828725163227
          ],
          [
            -122.40202121263141,
            47.60830814992795
          ],
          [
            -122.40324617986694,
            47.60832317738491
          ],
          [
            -122.40441397512151,
            47.60833256759011
          ],
          [
            -122.40553499979008,
            47.6083363993626
          ],
          [
            -122.40661777704315,
            47.60833467578457
          ],
          [
            -122.4077217444493,
            47.60832753361581
          ],
          [
            -122.40884905838253,
            47.60831495923781
          ],
          [
            -122.41000251024992,
            47.60829692176671
          ],
          [
            -122.41118396225494,
            47.608273400972756
          ],
          [
            -122.41239898952011,
            47.608244294387205
          ],
          [
            -122.41365264791168,
            47.60820948198676
          ],
          [
            -122.41495241431551,
            47.608168756866974
          ],
          [
            -122.41615618337089,
            47.60812728041378
          ],
          [
            -122.4174144080423,
            47.60808052393321
          ],
          [
            -122.41874036768559,
            47.60802799820301
          ],
          [
            -122.42016044336411,
            47.60796866020122
          ],
          [
            -122.4226382673126,
            47.607859480814426
          ],
          [
            -122.42758392975364,
            47.60763296408995
          ],
          [
            -122.42966553943236,
            47.60753971173354
          ],
          [
            -122.43060065271567,
            47.6074969881017
          ],
          [
            -122.43155444091302,
            47.607450298944855
          ],
          [
            -122.43252891283433,
            47.60739954614613
          ],
          [
            -122.43352669426805,
            47.60734459311123
          ],
          [
            -122.43454946818532,
            47.607285353096366
          ],
          [
            -122.4356026336842,
            47.60722151907106
          ],
          [
            -122.43669107243448,
            47.60715279590855
          ],
          [
            -122.43782217750525,
            47.60707871730273
          ],
          [
            -122.43977617925205,
            47.606945280168176
          ],
          [
            -122.44195035172365,
            47.60679041206958
          ],
          [
            -122.44405263789926,
            47.60663632931905
          ],
          [
            -122.44925859578275,
            47.60624979404659
          ],
          [
            -122.45071255706284,
            47.60614372028918
          ],
          [
            -122.45202245790897,
            47.606049929452666
          ],
          [
            -122.45344795778297,
            47.60595037589309
          ],
          [
            -122.45478495042688,
            47.60585994106847
          ],
          [
            -122.45605702573927,
            47.60577703114233
          ],
          [
            -122.45727652113743,
            47.60570084561758
          ],
          [
            -122.45863456841056,
            47.6056202981247
          ],
          [
            -122.45994505875268,
            47.60554735914347
          ],
          [
            -122.46121574199844,
            47.6054815980957
          ],
          [
            -122.46245187253389,
            47.605422744206535
          ],
          [
            -122.4636592450313,
            47.60537053060747
          ],
          [
            -122.4648398104599,
            47.605324882336305
          ],
          [
            -122.46599648132478,
            47.60528568704457
          ],
          [
            -122.46713151114255,
            47.60525286872107
          ],
          [
            -122.46849538454333,
            47.60521377496078
          ],
          [
            -122.47149356741824,
            47.60511860283689
          ],
          [
            -122.47281730714225,
            47.605079462009826
          ],
          [
            -122.47354186984646,
            47.605060374508234
          ],
          [
            -122.47421809282547,
            47.60504459967756
          ],
          [
            -122.47485955076286,
            47.605031822295565
          ],
          [
            -122.47547305482712,
            47.60502190973858
          ],
          [
            -122.47616974090201,
            47.60501376913417
          ],
          [
            -122.47684039057407,
            47.605009450997855
          ],
          [
            -122.47748937350347,
            47.60500892782928
          ],
          [
            -122.47811959438104,
            47.60501219826954
          ],
          [
            -122.47873426119556,
            47.60501928642662
          ],
          [
            -122.47933439358374,
            47.605030211854476
          ],
          [
            -122.47992156353786,
            47.60504500338729
          ],
          [
            -122.48049697629769,
            47.60506369167329
          ],
          [
            -122.48139153500851,
            47.605093013428814
          ],
          [
            -122.48178608664773,
            47.60510830938101
          ],
          [
            -122.48218632340047,
            47.605128863090926
          ],
          [
            -122.48254473264481,
            47.60515370555
          ],
          [
            -122.48298274519003,
            47.60518894497894
          ],
          [
            -122.48328019632046,
            47.60521474434205
          ],
          [
            -122.48355012776085,
            47.60524089571443
          ],
          [
            -122.48379465390475,
            47.605267819809
          ],
          [
            -122.48403200741133,
            47.605297772700794
          ],
          [
            -122.48425460845887,
            47.60533007619251
          ],
          [
            -122.48446533166964,
            47.60536514927428
          ],
          [
            -122.48466576941087,
            47.60540326041534
          ],
          [
            -122.48484591799216,
            47.605442204955054
          ],
          [
            -122.48503223435439,
            47.605487215546916
          ],
          [
            -122.48522657487663,
            47.60553873527694
          ],
          [
            -122.48543252127104,
            47.60559771101453
          ],
          [
            -122.48562025508363,
            47.60565470166038
          ],
          [
            -122.48582864050138,
            47.60572071813093
          ],
          [
            -122.4866699122226,
            47.60599650316479
          ],
          [
            -122.4871955936012,
            47.6061590079312
          ],
          [
            -122.48740083239315,
            47.60622510903707
          ],
          [
            -122.48751172286194,
            47.60626305723332
          ],
          [
            -122.487613919416,
            47.606300000990025
          ],
          [
            -122.48770940889703,
            47.606336659912756
          ],
          [
            -122.4877991796018,
            47.606373416315975
          ],
          [
            -122.48791986338841,
            47.606426310311925
          ],
          [
            -122.48804239966952,
            47.60648358714783
          ],
          [
            -122.48816737254819,
            47.60654551867644
          ],
          [
            -122.48829569845854,
            47.606612558315945
          ],
          [
            -122.48842703905002,
            47.60668447133054
          ],
          [
            -122.48856486356969,
            47.60676310293415
          ],
          [
            -122.4887118436698,
            47.60684995879363
          ],
          [
            -122.48887658778268,
            47.606950120880896
          ],
          [
            -122.4890228818969,
            47.60704159737084
          ],
          [
            -122.48916327991782,
            47.6071325025905
          ],
          [
            -122.489297952988,
            47.60722294745091
          ],
          [
            -122.48942701995537,
            47.60731301190849
          ],
          [
            -122.48955060912024,
            47.60740278677242
          ],
          [
            -122.48966876266178,
            47.607492304037905
          ],
          [
            -122.48978154248327,
            47.60758161064856
          ],
          [
            -122.48988899425083,
            47.60767074282316
          ],
          [
            -122.49004604215845,
            47.607808450114554
          ],
          [
            -122.49019723920472,
            47.60794968232236
          ],
          [
            -122.49034203660777,
            47.60809392670556
          ],
          [
            -122.49047992576867,
            47.60824067650442
          ],
          [
            -122.49061040687143,
            47.608389396772125
          ],
          [
            -122.49073307901486,
            47.60853962740829
          ],
          [
            -122.49084754987717,
            47.608690887708654
          ],
          [
            -122.49090160116955,
            47.608766761663425
          ],
          [
            -122.49095347645425,
            47.60884272418285
          ],
          [
            -122.49101139454955,
            47.60893363427571
          ],
          [
            -122.49106735154126,
            47.60903011335887
          ],
          [
            -122.49112195225554,
            47.60913319226247
          ],
          [
            -122.49117630690175,
            47.60924496079015
          ],
          [
            -122.49125497829776,
            47.60942208376622
          ],
          [
            -122.49143806512436,
            47.609867799694314
          ],
          [
            -122.49148411721616,
            47.60997510749397
          ],
          [
            -122.49152730884217,
            47.610070682363165
          ],
          [
            -122.49169588832892,
            47.6104358010883
          ],
          [
            -122.4918807087765,
            47.610841399421645
          ],
          [
            -122.49254225590788,
            47.612311866364855
          ],
          [
            -122.49281419396075,
            47.612910463176846
          ],
          [
            -122.4931017645585,
            47.61353045316176
          ],
          [
            -122.49323630101321,
            47.613814381419836
          ],
          [
            -122.49336694972183,
            47.61408576117603
          ],
          [
            -122.49348883194273,
            47.61434097868945
          ],
          [
            -122.49362107084536,
            47.61462607190667
          ],
          [
            -122.49405715432329,
            47.61559270454314
          ],
          [
            -122.4942256676157,
            47.61595988270001
          ],
          [
            -122.49440003723346,
            47.616326432595386
          ],
          [
            -122.49448283393147,
            47.61649439793977
          ],
          [
            -122.4945640171079,
            47.61665483787075
          ],
          [
            -122.49466669156479,
            47.61685140909847
          ],
          [
            -122.49476868276487,
            47.61703945242898
          ],
          [
            -122.49487070412036,
            47.61722028181704
          ],
          [
            -122.49497324034516,
            47.617394754308215
          ],
          [
            -122.49507685318657,
            47.61756381074503
          ],
          [
            -122.49518172605177,
            47.617727735231966
          ],
          [
            -122.49528814638927,
            47.617886976676616
          ],
          [
            -122.49539634172258,
            47.61804187502149
          ],
          [
            -122.49562346309925,
            47.61836406278902
          ],
          [
            -122.49574159654578,
            47.618525014671725
          ],
          [
            -122.49580344433146,
            47.61860484535377
          ],
          [
            -122.49586343525776,
            47.61867876978428
          ],
          [
            -122.49592264266207,
            47.61874810848383
          ],
          [
            -122.49598164586567,
            47.61881353577261
          ],
          [
            -122.49606463836227,
            47.61890127751727
          ],
          [
            -122.49614770067383,
            47.618985689551394
          ],
          [
            -122.49623098792338,
            47.619066929358304
          ],
          [
            -122.49631461198199,
            47.61914510583897
          ],
          [
            -122.49639870128368,
            47.619220337199394
          ],
          [
            -122.49648330170643,
            47.61929266260465
          ],
          [
            -122.49656848076127,
            47.619362139714376
          ],
          [
            -122.49665429134261,
            47.61942881160219
          ],
          [
            -122.4967481737022,
            47.61949744068913
          ],
          [
            -122.49685608229635,
            47.619571545052835
          ],
          [
            -122.49696965309887,
            47.61964611290292
          ],
          [
            -122.49719768087047,
            47.61979244376035
          ],
          [
            -122.49754411558408,
            47.6200141675584
          ],
          [
            -122.49767307044392,
            47.62009309255523
          ],
          [
            -122.49779246213095,
            47.620163104625085
          ],
          [
            -122.4980211431082,
            47.62029125086653
          ],
          [
            -122.49822459573332,
            47.62039918881982
          ],
          [
            -122.49841628961393,
            47.62049405119789
          ],
          [
            -122.49860013730444,
            47.62057772089774
          ],
          [
            -122.49881639514635,
            47.62066774048034
          ],
          [
            -122.49903495994207,
            47.62075106196698
          ],
          [
            -122.49925469374811,
            47.6208272521554
          ],
          [
            -122.499364691705,
            47.620862565469594
          ],
          [
            -122.49947462339317,
            47.620895974265224
          ],
          [
            -122.49963925190605,
            47.620942092626
          ],
          [
            -122.49981914375753,
            47.62098766288894
          ],
          [
            -122.5000184764407,
            47.62103379545566
          ],
          [
            -122.50025625286362,
            47.62108489754295
          ],
          [
            -122.50044947522808,
            47.62112223188032
          ],
          [
            -122.50066711623253,
            47.621158400049964
          ],
          [
            -122.50087676159735,
            47.621189373668216
          ],
          [
            -122.50138173353918,
            47.62125972017558
          ],
          [
            -122.50163735496936,
            47.62129923465014
          ],
          [
            -122.50218580633722,
            47.621393722009365
          ],
          [
            -122.50298417687436,
            47.621537947759286
          ],
          [
            -122.50342361348412,
            47.62161989595436
          ],
          [
            -122.50444970072343,
            47.62181681781057
          ],
          [
            -122.5049521050673,
            47.62190878764085
          ],
          [
            -122.50575148697858,
            47.622048332043455
          ],
          [
            -122.50603790874699,
            47.62209536695744
          ],
          [
            -122.50629850960583,
            47.622135567894674
          ],
          [
            -122.50659911205193,
            47.62217777097065
          ],
          [
            -122.50693612672943,
            47.62222030946213
          ],
          [
            -122.50725500286697,
            47.622257478077145
          ],
          [
            -122.50796539397467,
            47.622337097537205
          ],
          [
            -122.50827179508389,
            47.622373209115906
          ],
          [
            -122.5094111421413,
            47.62251316154619
          ]
        ]
      }
    }
  ]
}