{
  "type": "FeatureCollection",
  "features": [
    {
      "type": "Feature",
      "properties": {
        "route_id": "taxi-west-seattle",
        "display": "Downtown Seattle to West Seattle",
        "source": "wsdot_ferry_routes.geojson",
        "objectid": 26,
        "owner": "County"
      },
      "geometry": {
        "type": "LineString",
        "coordinates": [
          [
            -122.37960902484706,
            47.58938390803978
          ],
          [
            -122.37903339539149,
            47.58978301818058
          ],
          [
            -122.3784526195624,
            47.590178502911655
          ],
          [
            -122.37786669738252,
            47.59057036221766
          ],
          [
            -122.37727562887548,
            47.59095859608265
          ],
          [
            -122.37640508648708,
            47.59152214084621
          ],
          [
            -122.37605594401391,
            47.591744821365516
          ],
          [
            -122.37573241895294,
            47.5919484731992
          ],
          [
            -122.37541760670044,
            47.59214361676074
          ],
          [
            -122.37511608942921,
            47.59232727966001
          ],
          [
            -122.3748244858099,
            47.59250152041318
          ],
          [
            -122.37454078509393,
            47.59266753848432
          ],
          [
            -122.37421144112682,
            47.59285700014537
          ],
          [
            -122.37389146157572,
            47.59303874261265
          ],
          [
            -122.37357921275499,
            47.59321369346938
          ],
          [
            -122.37327358153308,
            47.59338247591625
          ],
          [
            -122.37297332883554,
            47.59354577046324
          ],
          [
            -122.37267804186834,
            47.593703797715435
          ],
          [
            -122.37238709828041,
            47.59385689062295
          ],
          [
            -122.37210001672547,
            47.59400530232308
          ],
          [
            -122.37181541946153,
            47.594149731476286
          ],
          [
            -122.37153392445128,
            47.59428985069083
          ],
          [
            -122.37125521265672,
            47.59442581872282
          ],
          [
            -122.37097902130418,
            47.59455776370244
          ],
          [
            -122.37070506627819,
            47.59468582067045
          ],
          [
            -122.37043318673,
            47.594810064111016
          ],
          [
            -122.37016319345642,
            47.594930580459064
          ],
          [
            -122.36989492452552,
            47.59504744196377
          ],
          [
            -122.36946269859023,
            47.5952294729314
          ],
          [
            -122.36901860158954,
            47.59540882397849
          ],
          [
            -122.3685623152759,
            47.59558562374936
          ],
          [
            -122.36809345065299,
            47.595760023066994
          ],
          [
            -122.36761168886758,
            47.595932143152204
          ],
          [
            -122.36711638423347,
            47.59610221721062
          ],
          [
            -122.36660693269124,
            47.59627045290076
          ],
          [
            -122.36608255875103,
            47.5964371064986
          ],
          [
            -122.36554575593641,
            47.59660144418271
          ],
          [
            -122.36499219039352,
            47.596764849473246
          ],
          [
            -122.36442052891414,
            47.59692771654617
          ],
          [
            -122.36382889868082,
            47.597090579412615
          ],
          [
            -122.36321646329928,
            47.59725368784025
          ],
          [
            -122.36257856290814,
            47.59741830129376
          ],
          [
            -122.36191104113229,
            47.597585495380585
          ],
          [
            -122.36120656809753,
            47.59775710768213
          ],
          [
            -122.36074903563704,
            47.59786483613843
          ],
          [
            -122.36028155759752,
            47.59797040739202
          ],
          [
            -122.35980353511653,
            47.59807395683078
          ],
          [
            -122.35931422169706,
            47.59817564627691
          ],
          [
            -122.35881304658929,
            47.5982755978509
          ],
          [
            -122.35829868298545,
            47.59837407953877
          ],
          [
            -122.35776990757765,
            47.598471325924045
          ],
          [
            -122.35722506710653,
            47.598567641320834
          ],
          [
            -122.35667425159605,
            47.598661360672985
          ],
          [
            -122.3561035791769,
            47.598754959832974
          ],
          [
            -122.35550991493464,
            47.59884895429006
          ],
          [
            -122.35488822409657,
            47.598944141989485
          ],
          [
            -122.35424116158077,
            47.5990401819359
          ],
          [
            -122.35354855296548,
            47.59914012862939
          ],
          [
            -122.35279502648349,
            47.599246222483195
          ],
          [
            -122.35192453097568,
            47.599366360460856
          ],
          [
            -122.35149912599772,
            47.59942217060319
          ],
          [
            -122.35105315584309,
            47.59947589926325
          ],
          [
            -122.35058196881225,
            47.599528112657005
          ],
          [
            -122.35007634988406,
            47.599579834692406
          ],
          [
            -122.34963367515871,
            47.59962219988397
          ],
          [
            -122.34913996286993,
            47.599667050552085
          ],
          [
            -122.34750463340166,
            47.599808267832564
          ],
          [
            -122.34690065685616,
            47.599861963334305
          ],
          [
            -122.34630765688931,
            47.59991789182922
          ],
          [
            -122.34577344418898,
            47.59997226703129
          ],
          [
            -122.34522237176256,
            47.60003357200973
          ],
          [
            -122.3447057008074,
            47.60009699100801
          ],
          [
            -122.34421516051458,
            47.600163542485
          ],
          [
            -122.34374631897543,
            47.600233834094695
          ],
          [
            -122.34312024133655,
            47.60033371782281
          ],
          [
            -122.34257254926615,
            47.600423937317174
          ],
          [
            -122.34206814655954,
            47.600510280147255
          ],
          [
            -122.34159650452071,
            47.60059457274005
          ],
          [
            -122.34114424086752,
            47.6006792775564
          ],
          [
            -122.340712768543,
            47.60076420702664
          ],
          [
            -122.34029860665976,
            47.60085004730686
          ],
          [
            -122.33989956660602,
            47.60093725363932
          ],
          [
            -122.3396464121019,
            47.6009948022352
          ],
          [
            -122.33943603642692,
            47.60104329382862
          ],
          [
            -122.33931129945702,
            47.601068498794966
          ],
          [
            -122.33925267389681,
            47.60108487280567
          ],
          [
            -122.33920894443901,
            47.601101764428115
          ],
          [
            -122.33916713016559,
            47.60112113150122
          ],
          [
            -122.33912723107511,
            47.60114297402572
          ],
          [
            -122.33908924716607,
            47.60116729200244
          ],
          [
            -122.33901517777798,
            47.60124174569259
          ],
          [
            -122.3389796411021,
            47.60127378699633
          ],
          [
            -122.3389451031115,
            47.60130237126654
          ],
          [
            -122.33891156380896,
            47.60132749850114
          ],
          [
            -122.3388790231987,
            47.60134916869678
          ],
          [
            -122.33884748128455,
            47.60136738185099
          ],
          [
            -122.33881693806994,
            47.60138213796165
          ],
          [
            -122.33878739355879,
            47.601393437027035
          ],
          [
            -122.33875884775412,
            47.60140127904586
          ],
          [
            -122.33873130065945,
            47.601405664017236
          ],
          [
            -122.33870475227775,
            47.601406591940666
          ],
          [
            -122.33867920261227,
            47.60140406281599
          ],
          [
            -122.3386546516659,
            47.60139807664354
          ],
          [
            -122.33863109944146,
            47.60138863342399
          ],
          [
            -122.3386085459417,
            47.601375733158456
          ],
          [
            -122.33859258237041,
            47.60136402820478
          ],
          [
            -122.33857715997082,
            47.601350450044954
          ],
          [
            -122.33854793868863,
            47.60131767410854
          ]
        ]
      }
    }
  ]
}