{
  "type": "FeatureCollection",
  "features": [
    {
      "type": "Feature",
      "properties": {
        "route_id": "taxi-vashon",
        "display": "Seattle to Vashon",
        "source": "wsdot_ferry_routes.geojson",
        "objectid": 15,
        "owner": "County"
      },
      "geometry": {
        "type": "LineString",
        "coordinates": [
          [
            -122.46463851086712,
            47.511314116741914
          ],
          [
            -122.4646958801751,
            47.51131309573604
          ],
          [
            -122.46474713626785,
            47.51131660883948
          ],
          [
            -122.4647697305299,
            47.51132062956965
          ],
          [
            -122.46478969295839,
            47.511326960005015
          ],
          [
            -122.46480707110446,
            47.511335614974556
          ],
          [
            -122.46482191777058,
            47.5113466205559
          ],
          [
            -122.46483426758113,
            47.511359992679694
          ],
          [
            -122.46484420024264,
            47.511375806174826
          ],
          [
            -122.4648517684057,
            47.51139414286936
          ],
          [
            -122.46485703078079,
            47.51141514329665
          ],
          [
            -122.46486076350304,
            47.51145406998087
          ],
          [
            -122.46485906503113,
            47.51150186280736
          ],
          [
            -122.46485363060033,
            47.51155002299246
          ],
          [
            -122.46483650377917,
            47.51166795584939
          ],
          [
            -122.46483138969549,
            47.511724508598945
          ],
          [
            -122.4648319053808,
            47.51177258658986
          ],
          [
            -122.46483442602809,
            47.51179336709251
          ],
          [
            -122.46483848211254,
            47.5118122518498
          ],
          [
            -122.46485295419306,
            47.51186199605112
          ],
          [
            -122.46487094739746,
            47.5119164613634
          ],
          [
            -122.46495803175125,
            47.51215046081017
          ],
          [
            -122.46499234657996,
            47.51225543285257
          ],
          [
            -122.46503129655349,
            47.51239685851579
          ],
          [
            -122.46506182525482,
            47.51252227527775
          ],
          [
            -122.46508560664097,
            47.5126385921174
          ],
          [
            -122.46510306286307,
            47.512748008997164
          ],
          [
            -122.46511061631482,
            47.51281122258039
          ],
          [
            -122.46511650763276,
            47.51287677586526
          ],
          [
            -122.46512344931986,
            47.513016678574466
          ],
          [
            -122.46512420224637,
            47.51317125451012
          ],
          [
            -122.46511888802087,
            47.51336232665445
          ],
          [
            -122.46511750174952,
            47.51358428948527
          ],
          [
            -122.46511291976978,
            47.51367538844599
          ],
          [
            -122.46510722095219,
            47.51372412887179
          ],
          [
            -122.46509911396765,
            47.51376937461683
          ],
          [
            -122.46508844174525,
            47.51381199164291
          ],
          [
            -122.46507509125168,
            47.51385241531399
          ],
          [
            -122.46507065206728,
            47.513864081642105
          ],
          [
            -122.46491675169216,
            47.514228709542685
          ],
          [
            -122.4647669306853,
            47.51459398430827
          ],
          [
            -122.46462118904545,
            47.51495990594189
          ],
          [
            -122.4644795267722,
            47.51532647444457
          ],
          [
            -122.4643419438655,
            47.51569368981648
          ],
          [
            -122.4642084403258,
            47.516061552056634
          ],
          [
            -122.46407901615213,
            47.516430061167355
          ],
          [
            -122.46395367134394,
            47.5167992171502
          ],
          [
            -122.46375232637433,
            47.517391177889714
          ],
          [
            -122.46366015218925,
            47.5176750656491
          ],
          [
            -122.46361611475756,
            47.51782038636933
          ],
          [
            -122.46357742740733,
            47.51795669153111
          ],
          [
            -122.46354338059827,
            47.51808648692964
          ],
          [
            -122.46351363816486,
            47.51821106716975
          ],
          [
            -122.46348503827626,
            47.51834655156815
          ],
          [
            -122.46345908040132,
            47.5184886067429
          ],
          [
            -122.46343548196018,
            47.51863875100985
          ],
          [
            -122.46341376267715,
            47.51880002468908
          ],
          [
            -122.46338459022688,
            47.51906021489767
          ],
          [
            -122.46332664833683,
            47.519674925641695
          ],
          [
            -122.46329652623596,
            47.51995240798041
          ],
          [
            -122.46320643114399,
            47.520708082130895
          ],
          [
            -122.46311881634541,
            47.52146388856548
          ],
          [
            -122.46303368183978,
            47.522219827287856
          ],
          [
            -122.4629510276264,
            47.52297589830489
          ],
          [
            -122.4628596808106,
            47.52375601873444
          ],
          [
            -122.46277269965155,
            47.52453632861081
          ],
          [
            -122.46272711223808,
            47.52497318176005
          ],
          [
            -122.46268340643192,
            47.525427513476984
          ],
          [
            -122.46264122492718,
            47.52590300937519
          ],
          [
            -122.46259998255773,
            47.52640624915942
          ],
          [
            -122.46255994664088,
            47.526932448920164
          ],
          [
            -122.4625185594638,
            47.527513786172484
          ],
          [
            -122.46236502470846,
            47.52983033541665
          ],
          [
            -122.46232854957213,
            47.53035755895163
          ],
          [
            -122.46229409854327,
            47.53083052605204
          ],
          [
            -122.46225164507769,
            47.53137607624992
          ],
          [
            -122.46220874172525,
            47.531885263865036
          ],
          [
            -122.46216453121244,
            47.53236823586843
          ],
          [
            -122.46211854122836,
            47.532830099003064
          ],
          [
            -122.46203919738568,
            47.5335767827623
          ],
          [
            -122.46195599992626,
            47.53432615943514
          ],
          [
            -122.46186894556757,
            47.53507825859457
          ],
          [
            -122.46177803072028,
            47.535833111255805
          ],
          [
            -122.46168325177798,
            47.536590747468225
          ],
          [
            -122.46158460436975,
            47.53735120227098
          ],
          [
            -122.46148208406977,
            47.538114509788116
          ],
          [
            -122.46137568605623,
            47.53888070592641
          ],
          [
            -122.46126540796372,
            47.53964980864238
          ],
          [
            -122.46115124168969,
            47.540421875336925
          ],
          [
            -122.46103318136423,
            47.54119694571202
          ],
          [
            -122.4609112206123,
            47.54197506162603
          ],
          [
            -122.46078535312404,
            47.542756263451906
          ],
          [
            -122.46065557119702,
            47.5435405991052
          ],
          [
            -122.46052186712984,
            47.54432811513691
          ],
          [
            -122.46038423255965,
            47.54511886081011
          ],
          [
            -122.46027062991857,
            47.54577252136928
          ],
          [
            -122.46014684501638,
            47.54650236112566
          ],
          [
            -122.45976416071522,
            47.548810656173195
          ],
          [
            -122.45963320414913,
            47.54959238778591
          ],
          [
            -122.45951298901483,
            47.550295277232216
          ],
          [
            -122.4594007601045,
            47.55093453456273
          ],
          [
            -122.4592509752578,
            47.5517574502419
          ],
          [
            -122.45910466570945,
            47.55252446034401
          ],
          [
            -122.45903180577858,
            47.552892300614616
          ],
          [
            -122.45895887843676,
            47.553251020673756
          ],
          [
            -122.45888568041593,
            47.5536016198299
          ],
          [
            -122.4588120529479,
            47.55394485783493
          ],
          [
            -122.45872723390598,
            47.55432881035074
          ],
          [
            -122.45864149020369,
            47.554704829678734
          ],
          [
            -122.4585546619379,
            47.55507361665858
          ],
          [
            -122.45846661747463,
            47.55543572989034
          ],
          [
            -122.45837720947583,
            47.555791770368074
          ],
          [
            -122.45828635712768,
            47.556142054943365
          ],
          [
            -122.45819396171609,
            47.55648696403392
          ],
          [
            -122.45809993767983,
            47.55682681682949
          ],
          [
            -122.4580040801129,
            47.55716233289144
          ],
          [
            -122.45790643560561,
            47.55749332841508
          ],
          [
            -122.45780693468404,
            47.55782003881141
          ],
          [
            -122.45770551520155,
            47.55814266803526
          ],
          [
            -122.45760210906424,
            47.55846143146052
          ],
          [
            -122.45749666962455,
            47.55877647165719
          ],
          [
            -122.45738914408757,
            47.55908794631816
          ],
          [
            -122.45727948422038,
            47.55939599510562
          ],
          [
            -122.45691764076832,
            47.560399760823366
          ],
          [
            -122.45673694377675,
            47.56089704861616
          ],
          [
            -122.45655740032043,
            47.56138354107527
          ],
          [
            -122.4563924559593,
            47.56182108795551
          ],
          [
            -122.45622264518255,
            47.562260034049416
          ],
          [
            -122.4560583183285,
            47.56267220540568
          ],
          [
            -122.45589691517355,
            47.56306401716931
          ],
          [
            -122.4557370126322,
            47.56343891162213
          ],
          [
            -122.45556791533829,
            47.563820738710504
          ],
          [
            -122.45539824598465,
            47.56418877478469
          ],
          [
            -122.45522720365273,
            47.564544755401165
          ],
          [
            -122.45505420629154,
            47.5648898894889
          ],
          [
            -122.45487858283592,
            47.56522549619131
          ],
          [
            -122.45470007169679,
            47.565552055706306
          ],
          [
            -122.45451829938513,
            47.565870250709814
          ],
          [
            -122.45433296185723,
            47.56618061272793
          ],
          [
            -122.45413263054081,
            47.56650577064915
          ],
          [
            -122.45393860628027,
            47.56681475360504
          ],
          [
            -122.45374893008993,
            47.56711067937759
          ],
          [
            -122.45356243032995,
            47.56739537264359
          ],
          [
            -122.4533777579413,
            47.56767087248216
          ],
          [
            -122.4531946188911,
            47.56793759659155
          ],
          [
            -122.45301242836139,
            47.56819639621992
          ],
          [
            -122.45283075308406,
            47.568447886159596
          ],
          [
            -122.45264814414251,
            47.56869401381401
          ],
          [
            -122.45246535827441,
            47.568933700677896
          ],
          [
            -122.45228211630159,
            47.56916731265085
          ],
          [
            -122.4520981921213,
            47.56939513775535
          ],
          [
            -122.45191333507356,
            47.569617484101556
          ],
          [
            -122.45172741282983,
            47.56983450845905
          ],
          [
            -122.45154026306804,
            47.57004640021765
          ],
          [
            -122.4513517475796,
            47.57025331575567
          ],
          [
            -122.45115880870398,
            47.57045768420081
          ],
          [
            -122.45095662460302,
            47.570663857196045
          ],
          [
            -122.4507448036123,
            47.57087223461445
          ],
          [
            -122.45052282413224,
            47.57108332993183
          ],
          [
            -122.45029034149384,
            47.57129748323388
          ],
          [
            -122.4500462662306,
            47.57151570963652
          ],
          [
            -122.44978958375374,
            47.57173891773651
          ],
          [
            -122.44951875780274,
            47.57196844438609
          ],
          [
            -122.4492658291279,
            47.57217808022194
          ],
          [
            -122.44899810561317,
            47.57239578060413
          ],
          [
            -122.4487127736431,
            47.57262383863921
          ],
          [
            -122.44840415288259,
            47.572866796904215
          ],
          [
            -122.44787532454322,
            47.57327665713088
          ],
          [
            -122.44674937464686,
            47.57413885194416
          ],
          [
            -122.4462642255442,
            47.574513313757855
          ],
          [
            -122.44589145252783,
            47.57480129361223
          ],
          [
            -122.44551300845195,
            47.57509023902667
          ],
          [
            -122.44512879279321,
            47.57538022676173
          ],
          [
            -122.44473869318139,
            47.57567134163812
          ],
          [
            -122.44434260572724,
            47.57596366138178
          ],
          [
            -122.44394038187288,
            47.57625729582456
          ],
          [
            -122.4435318793678,
            47.576552348827946
          ],
          [
            -122.44311693696885,
            47.57684893686761
          ],
          [
            -122.44269561951025,
            47.57714701618422
          ],
          [
            -122.44226750128655,
            47.57744689050055
          ],
          [
            -122.44183237211925,
            47.57774870705848
          ],
          [
            -122.44138998913547,
            47.57805263434027
          ],
          [
            -122.4409401376449,
            47.57835882031614
          ],
          [
            -122.4404824667472,
            47.57866750428301
          ],
          [
            -122.44001664539279,
            47.57897890956178
          ],
          [
            -122.43954228025916,
            47.57929329912412
          ],
          [
            -122.43906728042847,
            47.57960472713643
          ],
          [
            -122.43858304669091,
            47.57991820157125
          ],
          [
            -122.4380891901887,
            47.58023397422067
          ],
          [
            -122.43758524871797,
            47.58055234066895
          ],
          [
            -122.43707083076801,
            47.58087354957301
          ],
          [
            -122.4365452158988,
            47.58119805206273
          ],
          [
            -122.43600772939558,
            47.58152626480944
          ],
          [
            -122.43545753286813,
            47.58185869986444
          ],
          [
            -122.43489663470237,
            47.58219417062308
          ],
          [
            -122.43432104639307,
            47.582535088749054
          ],
          [
            -122.43372942411361,
            47.582882250467506
          ],
          [
            -122.43311996376922,
            47.58323671462165
          ],
          [
            -122.4324916214001,
            47.58359909646692
          ],
          [
            -122.43184041685649,
            47.58397169914092
          ],
          [
            -122.4311627566669,
            47.58435657984326
          ],
          [
            -122.43045288708336,
            47.58475700711483
          ],
          [
            -122.4296742493384,
            47.58519234853385
          ],
          [
            -122.42889225745476,
            47.585624736478685
          ],
          [
            -122.4281069936746,
            47.58605412547543
          ],
          [
            -122.42731854010954,
            47.58648047062502
          ],
          [
            -122.42652697958852,
            47.58690372714456
          ],
          [
            -122.42573239356143,
            47.587323851487504
          ],
          [
            -122.42493486415006,
            47.58774080023372
          ],
          [
            -122.42413447321545,
            47.5881545305865
          ],
          [
            -122.4233313088478,
            47.58856499706551
          ],
          [
            -122.42252544650842,
            47.588972161159724
          ],
          [
            -122.42171696779978,
            47.589375981639584
          ],
          [
            -122.42090595395292,
            47.58977641793211
          ],
          [
            -122.42009248693866,
            47.59017342957138
          ],
          [
            -122.41927664676761,
            47.59056697751525
          ],
          [
            -122.41845851415094,
            47.590957022830466
          ],
          [
            -122.41763816931946,
            47.591343527267306
          ],
          [
            -122.41680216810946,
            47.59173110460626
          ],
          [
            -122.41592381839817,
            47.592130643970506
          ],
          [
            -122.41499429854424,
            47.59254616672216
          ],
          [
            -122.41399636108943,
            47.59298538716176
          ],
          [
            -122.41307551421883,
            47.59338565184035
          ],
          [
            -122.41204472545209,
            47.593829457621695
          ],
          [
            -122.40886530324195,
            47.59518651798884
          ],
          [
            -122.40787312941033,
            47.595611407373426
          ],
          [
            -122.40731012171354,
            47.59585526152953
          ],
          [
            -122.40668488689988,
            47.59613002296934
          ],
          [
            -122.40467565771439,
            47.59702474874587
          ],
          [
            -122.40396312911716,
            47.597339924284455
          ],
          [
            -122.40328567579107,
            47.59763542026557
          ],
          [
            -122.40266888091718,
            47.59789942588199
          ],
          [
            -122.4022767346151,
            47.598064184021695
          ],
          [
            -122.4018982651517,
            47.598220572141514
          ],
          [
            -122.40153076689958,
            47.598369707709125
          ],
          [
            -122.40117246355578,
            47.598512310738975
          ],
          [
            -122.40082137627049,
            47.5986491626922
          ],
          [
            -122.4004769011001,
            47.598780492621884
          ],
          [
            -122.40013807973091,
            47.59890666571071
          ],
          [
            -122.39980417821796,
            47.59902795504368
          ],
          [
            -122.39929646758644,
            47.59920820378979
          ],
          [
            -122.3987906706299,
            47.59938418015509
          ],
          [
            -122.39828680772652,
            47.599555877050115
          ],
          [
            -122.39778489849411,
            47.599723287790425
          ],
          [
            -122.39728496293256,
            47.5998864057137
          ],
          [
            -122.39678701881915,
            47.600045225028346
          ],
          [
            -122.39629108432912,
            47.600199739937885
          ],
          [
            -122.39579717694302,
            47.6003499449965
          ],
          [
            -122.3947400731886,
            47.600671035649455
          ],
          [
            -122.39434495359869,
            47.60078965508633
          ],
          [
            -122.3939154001887,
            47.60091520680365
          ],
          [
            -122.39352835780379,
            47.60102389112997
          ],
          [
            -122.3931269890918,
            47.601130797470404
          ],
          [
            -122.39274774548079,
            47.601225233307304
          ],
          [
            -122.39238424219913,
            47.60130878471741
          ],
          [
            -122.3922073040282,
            47.60134672856461
          ],
          [
            -122.39203309094253,
            47.60138222297278
          ],
          [
            -122.39183923716296,
            47.60141954633609
          ],
          [
            -122.39164078315245,
            47.601455562293275
          ],
          [
            -122.3914373887426,
            47.6014903326906
          ],
          [
            -122.39122861675055,
            47.601523932350254
          ],
          [
            -122.39101416207892,
            47.601556413246016
          ],
          [
            -122.39079317641124,
            47.60158790661036
          ],
          [
            -122.39056488405939,
            47.60161852332244
          ],
          [
            -122.39032816695985,
            47.601648413553754
          ],
          [
            -122.38985597776579,
            47.601703196718184
          ],
          [
            -122.38933157396194,
            47.601758064268125
          ],
          [
            -122.38876965273559,
            47.601812124376515
          ],
          [
            -122.38780548300956,
            47.601900378602096
          ],
          [
            -122.38730338671871,
            47.601945220413064
          ],
          [
            -122.38682695696939,
            47.60198506033027
          ],
          [
            -122.38637040052285,
            47.60202038171031
          ],
          [
            -122.38593041969057,
            47.602051437699316
          ],
          [
            -122.38550330020297,
            47.60207847859066
          ],
          [
            -122.38508834349932,
            47.60210153607295
          ],
          [
            -122.38468402870365,
            47.602120694372104
          ],
          [
            -122.38428925943016,
            47.602136005040116
          ],
          [
            -122.38385307967273,
            47.602148541513124
          ],
          [
            -122.38340106344084,
            47.602156741780966
          ],
          [
            -122.38293042638682,
            47.60216065854994
          ],
          [
            -122.38243657260217,
            47.60216033135213
          ],
          [
            -122.38192364806832,
            47.60215588669471
          ],
          [
            -122.38137105763238,
            47.60214725912014
          ],
          [
            -122.38076483107623,
            47.60213428218776
          ],
          [
            -122.38003669780518,
            47.60211550253297
          ],
          [
            -122.3795377062774,
            47.60209983628486
          ],
          [
            -122.3790183390959,
            47.60207952586506
          ],
          [
            -122.3784740730724,
            47.6020543978262
          ],
          [
            -122.37789660308478,
            47.60202407051716
          ],
          [
            -122.37731796209401,
            47.60199057639254
          ],
          [
            -122.3766767556825,
            47.60195067361896
          ],
          [
            -122.37475954221328,
            47.60182315658358
          ],
          [
            -122.37402579266895,
            47.60177065663449
          ],
          [
            -122.3732598609664,
            47.60170897698556
          ],
          [
            -122.37245363681492,
            47.60163747315446
          ],
          [
            -122.37159102118923,
            47.60155472143045
          ],
          [
            -122.37084470343189,
            47.601478941507565
          ],
          [
            -122.3700133809914,
            47.60139110160047
          ],
          [
            -122.36733208817333,
            47.60109760932248
          ],
          [
            -122.36638120820905,
            47.600995366384225
          ],
          [
            -122.36547823016087,
            47.60090190587374
          ],
          [
            -122.36465963570964,
            47.60082158653934
          ],
          [
            -122.36388955654219,
            47.600750937160164
          ],
          [
            -122.36316019604706,
            47.60068930478242
          ],
          [
            -122.36246178014159,
            47.60063586580954
          ],
          [
            -122.36178877648341,
            47.60059020124323
          ],
          [
            -122.36035622052005,
            47.60050136794099
          ],
          [
            -122.35917293683933,
            47.600432587524935
          ],
          [
            -122.3580953696455,
            47.60037552971428
          ],
          [
            -122.3570958408678,
            47.60032882843809
          ],
          [
            -122.35660777096228,
            47.60030860559591
          ],
          [
            -122.35613237967942,
            47.60029073202133
          ],
          [
            -122.35566813912008,
            47.600275150399455
          ],
          [
            -122.35521391148757,
            47.600261822720334
          ],
          [
            -122.35476845710919,
            47.600250714258436
          ],
          [
            -122.35433123411164,
            47.60024181320598
          ],
          [
            -122.35390153584879,
            47.6002351052331
          ],
          [
            -122.35347879126113,
            47.60023058149539
          ],
          [
            -122.35251075059134,
            47.600224851056375
          ],
          [
            -122.35164066444656,
            47.60022450694269
          ],
          [
            -122.35083035965421,
            47.60022954175746
          ],
          [
            -122.35006590924561,
            47.60024006534209
          ],
          [
            -122.34933045311075,
            47.60025639156488
          ],
          [
            -122.34862465088398,
            47.600278594068875
          ],
          [
            -122.34794362096949,
            47.60030682771211
          ],
          [
            -122.3476113828016,
            47.60032324782928
          ],
          [
            -122.34728419685801,
            47.600341225825
          ],
          [
            -122.3468787017031,
            47.60036634935294
          ],
          [
            -122.34645631047267,
            47.60039586886095
          ],
          [
            -122.3460131098116,
            47.60043005460331
          ],
          [
            -122.34554174541756,
            47.60046947220659
          ],
          [
            -122.34508058690625,
            47.60051052069956
          ],
          [
            -122.34456719218704,
            47.600558411419534
          ],
          [
            -122.34288319776986,
            47.60072216178437
          ],
          [
            -122.34240420486447,
            47.60076486416435
          ],
          [
            -122.34128915687528,
            47.600854713218126
          ],
          [
            -122.34100887940943,
            47.60087986511303
          ],
          [
            -122.34075591227561,
            47.60090488918411
          ],
          [
            -122.34044578137112,
            47.60093956952241
          ],
          [
            -122.34015788352971,
            47.60097673894295
          ],
          [
            -122.33988645757033,
            47.6010171447856
          ],
          [
            -122.33962862944828,
            47.601061222389504
          ],
          [
            -122.33935836321952,
            47.601112499930856
          ],
          [
            -122.33908924716607,
            47.60116729200244
          ],
          [
            -122.33901517777798,
            47.60124174569259
          ],
          [
            -122.3389796411021,
            47.60127378699633
          ],
          [
            -122.3389451031115,
            47.60130237126654
          ],
          [
            -122.33891156380896,
            47.60132749850114
          ],
          [
            -122.3388790231987,
            47.60134916869678
          ],
          [
            -122.33884748128455,
            47.60136738185099
          ],
          [
            -122.33881693806994,
            47.60138213796165
          ],
          [
            -122.33878739355879,
            47.601393437027035
          ],
          [
            -122.33875884775412,
            47.60140127904586
          ],
          [
            -122.33873130065945,
            47.601405664017236
          ],
          [
            -122.33870475227775,
            47.601406591940666
          ],
          [
            -122.33867920261227,
            47.60140406281599
          ],
          [
            -122.3386546516659,
            47.60139807664354
          ],
          [
            -122.33863109944146,
            47.60138863342399
          ],
          [
            -122.3386085459417,
            47.601375733158456
          ],
          [
            -122.33859258237041,
            47.60136402820478
          ],
          [
            -122.33857715997082,
            47.601350450044954
          ],
          [
            -122.33854793868863,
            47.60131767410854
          ]
        ]
      }
    }
  ]
}